[
  {
    "plz": "1000",
    "name": "Wien"
  },
  {
    "plz": "1004",
    "name": "Wien"
  },
  {
    "plz": "1006",
    "name": "Wien"
  },
  {
    "plz": "1010",
    "name": "Wien"
  },
  {
    "plz": "1011",
    "name": "Wien Postfach"
  },
  {
    "plz": "1015",
    "name": "Wien"
  },
  {
    "plz": "1016",
    "name": "Wien"
  },
  {
    "plz": "1020",
    "name": "Wien"
  },
  {
    "plz": "1021",
    "name": "Wien Postfach"
  },
  {
    "plz": "1024",
    "name": "Wien"
  },
  {
    "plz": "1025",
    "name": "Wien"
  },
  {
    "plz": "1029",
    "name": "Wien"
  },
  {
    "plz": "1030",
    "name": "Wien"
  },
  {
    "plz": "1031",
    "name": "Wien Postfach"
  },
  {
    "plz": "1032",
    "name": "Wien"
  },
  {
    "plz": "1035",
    "name": "Wien"
  },
  {
    "plz": "1037",
    "name": "Wien"
  },
  {
    "plz": "1038",
    "name": "Wien"
  },
  {
    "plz": "1040",
    "name": "Wien"
  },
  {
    "plz": "1041",
    "name": "Wien Postfach"
  },
  {
    "plz": "1042",
    "name": "Wien"
  },
  {
    "plz": "1043",
    "name": "Wien"
  },
  {
    "plz": "1045",
    "name": "Wien"
  },
  {
    "plz": "1050",
    "name": "Wien"
  },
  {
    "plz": "1051",
    "name": "Wien Postfach"
  },
  {
    "plz": "1052",
    "name": "Wien"
  },
  {
    "plz": "1053",
    "name": "Wien"
  },
  {
    "plz": "1060",
    "name": "Wien"
  },
  {
    "plz": "1061",
    "name": "Wien Postfach"
  },
  {
    "plz": "1063",
    "name": "Wien-VÖPh"
  },
  {
    "plz": "1065",
    "name": "Wien"
  },
  {
    "plz": "1070",
    "name": "Wien"
  },
  {
    "plz": "1071",
    "name": "Wien Postfach"
  },
  {
    "plz": "1072",
    "name": "Wien"
  },
  {
    "plz": "1080",
    "name": "Wien"
  },
  {
    "plz": "1081",
    "name": "Wien Postfach"
  },
  {
    "plz": "1082",
    "name": "Wien"
  },
  {
    "plz": "1090",
    "name": "Wien"
  },
  {
    "plz": "1091",
    "name": "Wien Postfach"
  },
  {
    "plz": "1092",
    "name": "Wien"
  },
  {
    "plz": "1095",
    "name": "Wien"
  },
  {
    "plz": "1097",
    "name": "Wien"
  },
  {
    "plz": "1100",
    "name": "Wien"
  },
  {
    "plz": "1101",
    "name": "Wien Postfach"
  },
  {
    "plz": "1103",
    "name": "Wien"
  },
  {
    "plz": "1104",
    "name": "Wien"
  },
  {
    "plz": "1105",
    "name": "Wien"
  },
  {
    "plz": "1106",
    "name": "Wien"
  },
  {
    "plz": "1107",
    "name": "Wien"
  },
  {
    "plz": "1108",
    "name": "Wien"
  },
  {
    "plz": "1109",
    "name": "Wien"
  },
  {
    "plz": "1110",
    "name": "Wien"
  },
  {
    "plz": "1111",
    "name": "Wien Postfach"
  },
  {
    "plz": "1114",
    "name": "Wien"
  },
  {
    "plz": "1115",
    "name": "Wien"
  },
  {
    "plz": "1120",
    "name": "Wien"
  },
  {
    "plz": "1121",
    "name": "Wien Postfach"
  },
  {
    "plz": "1122",
    "name": "Wien"
  },
  {
    "plz": "1124",
    "name": "Wien"
  },
  {
    "plz": "1125",
    "name": "Wien"
  },
  {
    "plz": "1127",
    "name": "Wien"
  },
  {
    "plz": "1128",
    "name": "Wien"
  },
  {
    "plz": "1130",
    "name": "Wien"
  },
  {
    "plz": "1131",
    "name": "Wien Postfach"
  },
  {
    "plz": "1132",
    "name": "Wien"
  },
  {
    "plz": "1134",
    "name": "Wien"
  },
  {
    "plz": "1136",
    "name": "Wien"
  },
  {
    "plz": "1140",
    "name": "Wien"
  },
  {
    "plz": "1141",
    "name": "Wien Postfach"
  },
  {
    "plz": "1142",
    "name": "Wien"
  },
  {
    "plz": "1143",
    "name": "Wien"
  },
  {
    "plz": "1147",
    "name": "Wien"
  },
  {
    "plz": "1148",
    "name": "Wien"
  },
  {
    "plz": "1150",
    "name": "Wien"
  },
  {
    "plz": "1151",
    "name": "Wien Postfach"
  },
  {
    "plz": "1152",
    "name": "Wien"
  },
  {
    "plz": "1153",
    "name": "Wien"
  },
  {
    "plz": "1155",
    "name": "Wien"
  },
  {
    "plz": "1156",
    "name": "Wien"
  },
  {
    "plz": "1160",
    "name": "Wien"
  },
  {
    "plz": "1161",
    "name": "Wien Postfach"
  },
  {
    "plz": "1163",
    "name": "Wien"
  },
  {
    "plz": "1165",
    "name": "Wien"
  },
  {
    "plz": "1166",
    "name": "Wien"
  },
  {
    "plz": "1170",
    "name": "Wien"
  },
  {
    "plz": "1171",
    "name": "Wien Postfach"
  },
  {
    "plz": "1172",
    "name": "Wien"
  },
  {
    "plz": "1180",
    "name": "Wien"
  },
  {
    "plz": "1181",
    "name": "Wien Postfach"
  },
  {
    "plz": "1182",
    "name": "Wien"
  },
  {
    "plz": "1183",
    "name": "Wien"
  },
  {
    "plz": "1190",
    "name": "Wien"
  },
  {
    "plz": "1191",
    "name": "Wien Postfach"
  },
  {
    "plz": "1192",
    "name": "Wien"
  },
  {
    "plz": "1193",
    "name": "Wien"
  },
  {
    "plz": "1195",
    "name": "Wien"
  },
  {
    "plz": "1196",
    "name": "Wien"
  },
  {
    "plz": "1200",
    "name": "Wien"
  },
  {
    "plz": "1201",
    "name": "Wien Postfach"
  },
  {
    "plz": "1203",
    "name": "Wien"
  },
  {
    "plz": "1205",
    "name": "Wien"
  },
  {
    "plz": "1206",
    "name": "Wien"
  },
  {
    "plz": "1208",
    "name": "Wien"
  },
  {
    "plz": "1210",
    "name": "Wien"
  },
  {
    "plz": "1211",
    "name": "Wien Postfach"
  },
  {
    "plz": "1213",
    "name": "Wien"
  },
  {
    "plz": "1215",
    "name": "Wien"
  },
  {
    "plz": "1217",
    "name": "Wien"
  },
  {
    "plz": "1218",
    "name": "Wien"
  },
  {
    "plz": "1219",
    "name": "Wien"
  },
  {
    "plz": "1220",
    "name": "Wien"
  },
  {
    "plz": "1221",
    "name": "Wien Postfach"
  },
  {
    "plz": "1222",
    "name": "Wien"
  },
  {
    "plz": "1223",
    "name": "Wien"
  },
  {
    "plz": "1224",
    "name": "Wien"
  },
  {
    "plz": "1225",
    "name": "Wien"
  },
  {
    "plz": "1228",
    "name": "Wien"
  },
  {
    "plz": "1229",
    "name": "Wien"
  },
  {
    "plz": "1230",
    "name": "Wien"
  },
  {
    "plz": "1231",
    "name": "Wien Postfach"
  },
  {
    "plz": "1233",
    "name": "Wien"
  },
  {
    "plz": "1235",
    "name": "Wien"
  },
  {
    "plz": "1236",
    "name": "Wien"
  },
  {
    "plz": "1238",
    "name": "Wien"
  },
  {
    "plz": "1239",
    "name": "Wien"
  },
  {
    "plz": "1254",
    "name": "Wien"
  },
  {
    "plz": "1300",
    "name": "Wien-Flughafen"
  },
  {
    "plz": "1310",
    "name": "Wien"
  },
  {
    "plz": "1400",
    "name": "Wien-Vereinte Nationen"
  },
  {
    "plz": "1423",
    "name": "Wien"
  },
  {
    "plz": "1500",
    "name": "UNDOF AUTCON"
  },
  {
    "plz": "1502",
    "name": "AUTCON EUFOR"
  },
  {
    "plz": "1503",
    "name": "AUTCON KFOR"
  },
  {
    "plz": "1504",
    "name": "AUTCON UNIFIL"
  },
  {
    "plz": "1600",
    "name": "Wien"
  },
  {
    "plz": "1610",
    "name": "Wien"
  },
  {
    "plz": "2000",
    "name": "Stockerau"
  },
  {
    "plz": "2002",
    "name": "Großmugl"
  },
  {
    "plz": "2003",
    "name": "Leitzersdorf"
  },
  {
    "plz": "2004",
    "name": "Niederhollabrunn"
  },
  {
    "plz": "2011",
    "name": "Sierndorf"
  },
  {
    "plz": "2013",
    "name": "Göllersdorf"
  },
  {
    "plz": "2014",
    "name": "Breitenwaida"
  },
  {
    "plz": "2020",
    "name": "Hollabrunn"
  },
  {
    "plz": "2022",
    "name": "Immendorf"
  },
  {
    "plz": "2023",
    "name": "Nappersdorf"
  },
  {
    "plz": "2024",
    "name": "Mailberg"
  },
  {
    "plz": "2031",
    "name": "Eggendorf im Thale"
  },
  {
    "plz": "2032",
    "name": "Enzersdorf im Thale"
  },
  {
    "plz": "2033",
    "name": "Kammersdorf"
  },
  {
    "plz": "2034",
    "name": "Großharras"
  },
  {
    "plz": "2041",
    "name": "Wullersdorf"
  },
  {
    "plz": "2042",
    "name": "Guntersdorf"
  },
  {
    "plz": "2051",
    "name": "Zellerndorf"
  },
  {
    "plz": "2052",
    "name": "Pernersdorf-Pfaffendorf"
  },
  {
    "plz": "2053",
    "name": "Jetzelsdorf"
  },
  {
    "plz": "2054",
    "name": "Haugsdorf"
  },
  {
    "plz": "2061",
    "name": "Hadres"
  },
  {
    "plz": "2062",
    "name": "Seefeld-Großkadolz"
  },
  {
    "plz": "2063",
    "name": "Zwingendorf"
  },
  {
    "plz": "2064",
    "name": "Wulzeshofen"
  },
  {
    "plz": "2070",
    "name": "Retz"
  },
  {
    "plz": "2073",
    "name": "Schrattenthal"
  },
  {
    "plz": "2074",
    "name": "Unterretzbach"
  },
  {
    "plz": "2081",
    "name": "Niederfladnitz"
  },
  {
    "plz": "2082",
    "name": "Hardegg"
  },
  {
    "plz": "2083",
    "name": "Pleißing"
  },
  {
    "plz": "2084",
    "name": "Weitersfeld"
  },
  {
    "plz": "2091",
    "name": "Langau"
  },
  {
    "plz": "2092",
    "name": "Riegersburg"
  },
  {
    "plz": "2093",
    "name": "Geras"
  },
  {
    "plz": "2094",
    "name": "Zissersdorf"
  },
  {
    "plz": "2095",
    "name": "Drosendorf"
  },
  {
    "plz": "2100",
    "name": "Korneuburg"
  },
  {
    "plz": "2102",
    "name": "Bisamberg"
  },
  {
    "plz": "2103",
    "name": "Langenzersdorf"
  },
  {
    "plz": "2104",
    "name": "Spillern"
  },
  {
    "plz": "2105",
    "name": "Oberrohrbach"
  },
  {
    "plz": "2106",
    "name": "Klein-Engersdorf"
  },
  {
    "plz": "2111",
    "name": "Rückersdorf-Harmannsdorf"
  },
  {
    "plz": "2112",
    "name": "Würnitz"
  },
  {
    "plz": "2113",
    "name": "Karnabrunn"
  },
  {
    "plz": "2114",
    "name": "Großrußbach"
  },
  {
    "plz": "2115",
    "name": "Ernstbrunn"
  },
  {
    "plz": "2116",
    "name": "Niederleis"
  },
  {
    "plz": "2120",
    "name": "Wolkersdorf im Weinviertel"
  },
  {
    "plz": "2122",
    "name": "Ulrichskirchen"
  },
  {
    "plz": "2123",
    "name": "Schleinbach"
  },
  {
    "plz": "2124",
    "name": "Niederkreuzstetten"
  },
  {
    "plz": "2125",
    "name": "Neubau"
  },
  {
    "plz": "2126",
    "name": "Ladendorf"
  },
  {
    "plz": "2127",
    "name": "Hautzendorf"
  },
  {
    "plz": "2130",
    "name": "Mistelbach"
  },
  {
    "plz": "2132",
    "name": "Frättingsdorf"
  },
  {
    "plz": "2133",
    "name": "Loosdorf"
  },
  {
    "plz": "2134",
    "name": "Staatz-Kautendorf"
  },
  {
    "plz": "2135",
    "name": "Neudorf im Weinviertel"
  },
  {
    "plz": "2136",
    "name": "Laa an der Thaya"
  },
  {
    "plz": "2141",
    "name": "Ameis"
  },
  {
    "plz": "2143",
    "name": "Großkrut"
  },
  {
    "plz": "2144",
    "name": "Altlichtenwarth"
  },
  {
    "plz": "2145",
    "name": "Hausbrunn"
  },
  {
    "plz": "2151",
    "name": "Asparn an der Zaya"
  },
  {
    "plz": "2152",
    "name": "Gnadendorf"
  },
  {
    "plz": "2153",
    "name": "Stronsdorf"
  },
  {
    "plz": "2154",
    "name": "Unterstinkenbrunn"
  },
  {
    "plz": "2161",
    "name": "Poysbrunn"
  },
  {
    "plz": "2162",
    "name": "Falkenstein"
  },
  {
    "plz": "2163",
    "name": "Ottenthal"
  },
  {
    "plz": "2164",
    "name": "Wildendürnbach"
  },
  {
    "plz": "2165",
    "name": "Drasenhofen"
  },
  {
    "plz": "2170",
    "name": "Poysdorf"
  },
  {
    "plz": "2171",
    "name": "Herrnbaumgarten"
  },
  {
    "plz": "2172",
    "name": "Schrattenberg"
  },
  {
    "plz": "2181",
    "name": "Dobermannsdorf"
  },
  {
    "plz": "2182",
    "name": "Palterndorf"
  },
  {
    "plz": "2183",
    "name": "Neusiedl an der Zaya"
  },
  {
    "plz": "2184",
    "name": "Hauskirchen"
  },
  {
    "plz": "2185",
    "name": "Prinzendorf an der Zaya"
  },
  {
    "plz": "2191",
    "name": "Gaweinstal"
  },
  {
    "plz": "2192",
    "name": "Kettlasbrunn"
  },
  {
    "plz": "2193",
    "name": "Wilfersdorf"
  },
  {
    "plz": "2201",
    "name": "Gerasdorf"
  },
  {
    "plz": "2202",
    "name": "Enzersfeld"
  },
  {
    "plz": "2203",
    "name": "Großebersdorf"
  },
  {
    "plz": "2211",
    "name": "Pillichsdorf"
  },
  {
    "plz": "2212",
    "name": "Großengersdorf"
  },
  {
    "plz": "2213",
    "name": "Bockfließ"
  },
  {
    "plz": "2214",
    "name": "Auersthal"
  },
  {
    "plz": "2215",
    "name": "Raggendorf"
  },
  {
    "plz": "2221",
    "name": "Groß Schweinbarth"
  },
  {
    "plz": "2222",
    "name": "Bad Pirawarth"
  },
  {
    "plz": "2223",
    "name": "Hohenruppersdorf"
  },
  {
    "plz": "2224",
    "name": "Obersulz"
  },
  {
    "plz": "2225",
    "name": "Zistersdorf"
  },
  {
    "plz": "2230",
    "name": "Gänserndorf"
  },
  {
    "plz": "2231",
    "name": "Strasshof an der Nordbahn"
  },
  {
    "plz": "2232",
    "name": "Deutsch Wagram"
  },
  {
    "plz": "2241",
    "name": "Schönkirchen"
  },
  {
    "plz": "2242",
    "name": "Prottes"
  },
  {
    "plz": "2243",
    "name": "Matzen"
  },
  {
    "plz": "2244",
    "name": "Spannberg"
  },
  {
    "plz": "2245",
    "name": "Velm-Götzendorf"
  },
  {
    "plz": "2251",
    "name": "Ebenthal"
  },
  {
    "plz": "2252",
    "name": "Ollersdorf"
  },
  {
    "plz": "2253",
    "name": "Weikendorf"
  },
  {
    "plz": "2261",
    "name": "Angern an der March"
  },
  {
    "plz": "2262",
    "name": "Stillfried"
  },
  {
    "plz": "2263",
    "name": "Dürnkrut"
  },
  {
    "plz": "2264",
    "name": "Jedenspeigen"
  },
  {
    "plz": "2265",
    "name": "Drösing"
  },
  {
    "plz": "2272",
    "name": "Niederabsdorf"
  },
  {
    "plz": "2273",
    "name": "Hohenau an der March"
  },
  {
    "plz": "2274",
    "name": "Rabensburg"
  },
  {
    "plz": "2275",
    "name": "Bernhardsthal"
  },
  {
    "plz": "2276",
    "name": "Reintal"
  },
  {
    "plz": "2280",
    "name": "Glinzendorf"
  },
  {
    "plz": "2281",
    "name": "Raasdorf"
  },
  {
    "plz": "2282",
    "name": "Markgrafneusiedl"
  },
  {
    "plz": "2283",
    "name": "Obersiebenbrunn"
  },
  {
    "plz": "2284",
    "name": "Untersiebenbrunn"
  },
  {
    "plz": "2285",
    "name": "Leopoldsdorf im Marchfelde"
  },
  {
    "plz": "2286",
    "name": "Haringsee"
  },
  {
    "plz": "2291",
    "name": "Lassee"
  },
  {
    "plz": "2292",
    "name": "Engelhartstetten"
  },
  {
    "plz": "2293",
    "name": "Marchegg Stadt"
  },
  {
    "plz": "2294",
    "name": "Marchegg Bahnhof"
  },
  {
    "plz": "2295",
    "name": "Oberweiden"
  },
  {
    "plz": "2301",
    "name": "Groß-Enzersdorf"
  },
  {
    "plz": "2304",
    "name": "Orth an der Donau"
  },
  {
    "plz": "2305",
    "name": "Eckartsau"
  },
  {
    "plz": "2320",
    "name": "Schwechat"
  },
  {
    "plz": "2322",
    "name": "Zwölfaxing"
  },
  {
    "plz": "2325",
    "name": "Himberg"
  },
  {
    "plz": "2326",
    "name": "Maria Lanzendorf"
  },
  {
    "plz": "2327",
    "name": "Rauchenwarth"
  },
  {
    "plz": "2331",
    "name": "Vösendorf"
  },
  {
    "plz": "2332",
    "name": "Hennersdorf"
  },
  {
    "plz": "2333",
    "name": "Leopoldsdorf"
  },
  {
    "plz": "2334",
    "name": "Vösendorf"
  },
  {
    "plz": "2340",
    "name": "Mödling"
  },
  {
    "plz": "2344",
    "name": "Maria Enzersdorf"
  },
  {
    "plz": "2345",
    "name": "Brunn am Gebirge"
  },
  {
    "plz": "2346",
    "name": "Maria Enzersdorf-Südstadt"
  },
  {
    "plz": "2349",
    "name": "Mödling"
  },
  {
    "plz": "2351",
    "name": "Wiener Neudorf"
  },
  {
    "plz": "2352",
    "name": "Gumpoldskirchen"
  },
  {
    "plz": "2353",
    "name": "Guntramsdorf"
  },
  {
    "plz": "2355",
    "name": "Wiener Neudorf"
  },
  {
    "plz": "2356",
    "name": "Wiener Neudorf"
  },
  {
    "plz": "2361",
    "name": "Laxenburg"
  },
  {
    "plz": "2362",
    "name": "Biedermannsdorf"
  },
  {
    "plz": "2371",
    "name": "Hinterbrühl"
  },
  {
    "plz": "2372",
    "name": "Gießhübl"
  },
  {
    "plz": "2380",
    "name": "Perchtoldsdorf"
  },
  {
    "plz": "2381",
    "name": "Laab im Walde"
  },
  {
    "plz": "2384",
    "name": "Breitenfurt bei Wien"
  },
  {
    "plz": "2391",
    "name": "Kaltenleutgeben"
  },
  {
    "plz": "2392",
    "name": "Sulz im Wienerwald"
  },
  {
    "plz": "2393",
    "name": "Sittendorf"
  },
  {
    "plz": "2401",
    "name": "Fischamend"
  },
  {
    "plz": "2402",
    "name": "Maria Ellend"
  },
  {
    "plz": "2403",
    "name": "Regelsbrunn"
  },
  {
    "plz": "2404",
    "name": "Petronell"
  },
  {
    "plz": "2405",
    "name": "Bad Deutsch Altenburg"
  },
  {
    "plz": "2410",
    "name": "Hainburg an der Donau"
  },
  {
    "plz": "2412",
    "name": "Wolfsthal"
  },
  {
    "plz": "2413",
    "name": "Berg"
  },
  {
    "plz": "2421",
    "name": "Kittsee"
  },
  {
    "plz": "2422",
    "name": "Pama"
  },
  {
    "plz": "2423",
    "name": "Deutsch Jahrndorf"
  },
  {
    "plz": "2424",
    "name": "Zurndorf"
  },
  {
    "plz": "2425",
    "name": "Nickelsdorf"
  },
  {
    "plz": "2431",
    "name": "Kleinneusiedl"
  },
  {
    "plz": "2432",
    "name": "Schwadorf"
  },
  {
    "plz": "2433",
    "name": "Margarethen am Moos"
  },
  {
    "plz": "2434",
    "name": "Götzendorf an der Leitha"
  },
  {
    "plz": "2435",
    "name": "Ebergassing"
  },
  {
    "plz": "2440",
    "name": "Gramatneusiedl"
  },
  {
    "plz": "2441",
    "name": "Mitterndorf an der Fischa"
  },
  {
    "plz": "2442",
    "name": "Unterwaltersdorf"
  },
  {
    "plz": "2443",
    "name": "Deutsch-Brodersdorf"
  },
  {
    "plz": "2444",
    "name": "Seibersdorf"
  },
  {
    "plz": "2445",
    "name": "Leithaprodersdorf"
  },
  {
    "plz": "2451",
    "name": "Hof am Leithaberge"
  },
  {
    "plz": "2452",
    "name": "Mannersdorf am Leithagebirge"
  },
  {
    "plz": "2453",
    "name": "Sommerein"
  },
  {
    "plz": "2454",
    "name": "Trautmannsdorf an der Leitha"
  },
  {
    "plz": "2460",
    "name": "Bruck an der Leitha"
  },
  {
    "plz": "2462",
    "name": "Wilfleinsdorf"
  },
  {
    "plz": "2463",
    "name": "Stixneusiedl"
  },
  {
    "plz": "2464",
    "name": "Göttlesbrunn"
  },
  {
    "plz": "2465",
    "name": "Höflein"
  },
  {
    "plz": "2471",
    "name": "Rohrau"
  },
  {
    "plz": "2472",
    "name": "Prellenkirchen"
  },
  {
    "plz": "2473",
    "name": "Potzneusiedl"
  },
  {
    "plz": "2474",
    "name": "Gattendorf"
  },
  {
    "plz": "2475",
    "name": "Neudorf"
  },
  {
    "plz": "2481",
    "name": "Achau"
  },
  {
    "plz": "2482",
    "name": "Münchendorf"
  },
  {
    "plz": "2483",
    "name": "Ebreichsdorf"
  },
  {
    "plz": "2484",
    "name": "Weigelsdorf"
  },
  {
    "plz": "2485",
    "name": "Wampersdorf"
  },
  {
    "plz": "2486",
    "name": "Pottendorf"
  },
  {
    "plz": "2490",
    "name": "Ebenfurth"
  },
  {
    "plz": "2491",
    "name": "Neufeld an der Leitha"
  },
  {
    "plz": "2492",
    "name": "Eggendorf"
  },
  {
    "plz": "2493",
    "name": "Lichtenwörth-Nadelburg"
  },
  {
    "plz": "2500",
    "name": "Baden"
  },
  {
    "plz": "2504",
    "name": "Sooß"
  },
  {
    "plz": "2505",
    "name": "Baden-Leesdorf"
  },
  {
    "plz": "2511",
    "name": "Pfaffstätten"
  },
  {
    "plz": "2512",
    "name": "Tribuswinkel"
  },
  {
    "plz": "2513",
    "name": "Möllersdorf"
  },
  {
    "plz": "2514",
    "name": "Traiskirchen"
  },
  {
    "plz": "2521",
    "name": "Trumau"
  },
  {
    "plz": "2522",
    "name": "Oberwaltersdorf"
  },
  {
    "plz": "2523",
    "name": "Tattendorf"
  },
  {
    "plz": "2524",
    "name": "Teesdorf"
  },
  {
    "plz": "2525",
    "name": "Günselsdorf"
  },
  {
    "plz": "2531",
    "name": "Gaaden"
  },
  {
    "plz": "2532",
    "name": "Heiligenkreuz im Wienerwald"
  },
  {
    "plz": "2533",
    "name": "Klausen-Leopoldsdorf"
  },
  {
    "plz": "2534",
    "name": "Alland"
  },
  {
    "plz": "2540",
    "name": "Bad Vöslau"
  },
  {
    "plz": "2542",
    "name": "Kottingbrunn"
  },
  {
    "plz": "2544",
    "name": "Leobersdorf"
  },
  {
    "plz": "2551",
    "name": "Enzesfeld-Lindabrunn"
  },
  {
    "plz": "2552",
    "name": "Hirtenberg"
  },
  {
    "plz": "2560",
    "name": "Berndorf"
  },
  {
    "plz": "2561",
    "name": "Hernstein"
  },
  {
    "plz": "2563",
    "name": "Pottenstein"
  },
  {
    "plz": "2564",
    "name": "Weissenbach an der Triesting"
  },
  {
    "plz": "2565",
    "name": "Neuhaus"
  },
  {
    "plz": "2571",
    "name": "Altenmarkt-Thenneberg"
  },
  {
    "plz": "2572",
    "name": "Kaumberg"
  },
  {
    "plz": "2601",
    "name": "Sollenau"
  },
  {
    "plz": "2602",
    "name": "Blumau-Neurißhof"
  },
  {
    "plz": "2603",
    "name": "Felixdorf"
  },
  {
    "plz": "2604",
    "name": "Theresienfeld"
  },
  {
    "plz": "2620",
    "name": "Neunkirchen"
  },
  {
    "plz": "2624",
    "name": "Breitenau"
  },
  {
    "plz": "2625",
    "name": "Schwarzau am Steinfelde"
  },
  {
    "plz": "2630",
    "name": "Ternitz"
  },
  {
    "plz": "2631",
    "name": "Sieding-Stixenstein"
  },
  {
    "plz": "2632",
    "name": "Wimpassing im Schwarzatale"
  },
  {
    "plz": "2640",
    "name": "Gloggnitz"
  },
  {
    "plz": "2641",
    "name": "Schottwien"
  },
  {
    "plz": "2642",
    "name": "Maria Schutz"
  },
  {
    "plz": "2650",
    "name": "Payerbach"
  },
  {
    "plz": "2651",
    "name": "Reichenau an der Rax"
  },
  {
    "plz": "2654",
    "name": "Prein an der Rax"
  },
  {
    "plz": "2661",
    "name": "Naßwald"
  },
  {
    "plz": "2662",
    "name": "Schwarzau im Gebirge"
  },
  {
    "plz": "2663",
    "name": "Rohr im Gebirge"
  },
  {
    "plz": "2671",
    "name": "Küb"
  },
  {
    "plz": "2673",
    "name": "Breitenstein"
  },
  {
    "plz": "2680",
    "name": "Semmering"
  },
  {
    "plz": "2700",
    "name": "Wiener Neustadt"
  },
  {
    "plz": "2703",
    "name": "Wiener Neustadt"
  },
  {
    "plz": "2705",
    "name": "Wiener Neustadt"
  },
  {
    "plz": "2706",
    "name": "Wiener Neustadt"
  },
  {
    "plz": "2707",
    "name": "Wiener Neustadt"
  },
  {
    "plz": "2721",
    "name": "Bad Fischau"
  },
  {
    "plz": "2722",
    "name": "Winzendorf"
  },
  {
    "plz": "2723",
    "name": "Muthmannsdorf"
  },
  {
    "plz": "2724",
    "name": "Hohe Wand-Stollhof"
  },
  {
    "plz": "2731",
    "name": "St. Egyden am Steinfeld"
  },
  {
    "plz": "2732",
    "name": "Willendorf"
  },
  {
    "plz": "2733",
    "name": "Grünbach am Schneeberg"
  },
  {
    "plz": "2734",
    "name": "Puchberg am Schneeberg"
  },
  {
    "plz": "2751",
    "name": "Steinabrückl"
  },
  {
    "plz": "2752",
    "name": "Wöllersdorf"
  },
  {
    "plz": "2753",
    "name": "Markt Piesting"
  },
  {
    "plz": "2754",
    "name": "Waldegg"
  },
  {
    "plz": "2755",
    "name": "Oed"
  },
  {
    "plz": "2761",
    "name": "Miesenbach"
  },
  {
    "plz": "2763",
    "name": "Pernitz"
  },
  {
    "plz": "2770",
    "name": "Gutenstein"
  },
  {
    "plz": "2801",
    "name": "Katzelsdorf"
  },
  {
    "plz": "2802",
    "name": "Hochwolkersdorf"
  },
  {
    "plz": "2803",
    "name": "Schwarzenbach"
  },
  {
    "plz": "2811",
    "name": "Wiesmath"
  },
  {
    "plz": "2812",
    "name": "Hollenthon"
  },
  {
    "plz": "2813",
    "name": "Lichtenegg"
  },
  {
    "plz": "2820",
    "name": "Walpersbach"
  },
  {
    "plz": "2821",
    "name": "Lanzenkirchen"
  },
  {
    "plz": "2822",
    "name": "Bad Erlach"
  },
  {
    "plz": "2823",
    "name": "Pitten"
  },
  {
    "plz": "2824",
    "name": "Seebenstein"
  },
  {
    "plz": "2831",
    "name": "Warth"
  },
  {
    "plz": "2832",
    "name": "Thernberg"
  },
  {
    "plz": "2833",
    "name": "Bromberg"
  },
  {
    "plz": "2840",
    "name": "Grimmenstein"
  },
  {
    "plz": "2842",
    "name": "Edlitz"
  },
  {
    "plz": "2851",
    "name": "Krumbach"
  },
  {
    "plz": "2852",
    "name": "Hochneukirchen"
  },
  {
    "plz": "2853",
    "name": "Bad Schönau"
  },
  {
    "plz": "2860",
    "name": "Kirchschlag in der Buckligen Welt"
  },
  {
    "plz": "2870",
    "name": "Aspang"
  },
  {
    "plz": "2871",
    "name": "Zöbern"
  },
  {
    "plz": "2872",
    "name": "Mönichkirchen"
  },
  {
    "plz": "2873",
    "name": "Feistritz am Wechsel"
  },
  {
    "plz": "2880",
    "name": "Kirchberg am Wechsel"
  },
  {
    "plz": "2881",
    "name": "Trattenbach"
  },
  {
    "plz": "3001",
    "name": "Mauerbach"
  },
  {
    "plz": "3002",
    "name": "Purkersdorf"
  },
  {
    "plz": "3003",
    "name": "Gablitz"
  },
  {
    "plz": "3004",
    "name": "Ried am Riederberg"
  },
  {
    "plz": "3011",
    "name": "Untertullnerbach"
  },
  {
    "plz": "3012",
    "name": "Wolfsgraben"
  },
  {
    "plz": "3013",
    "name": "Tullnerbach-Lawies"
  },
  {
    "plz": "3021",
    "name": "Pressbaum"
  },
  {
    "plz": "3031",
    "name": "Rekawinkel"
  },
  {
    "plz": "3032",
    "name": "Eichgraben"
  },
  {
    "plz": "3033",
    "name": "Altlengbach"
  },
  {
    "plz": "3034",
    "name": "Maria Anzbach"
  },
  {
    "plz": "3040",
    "name": "Neulengbach"
  },
  {
    "plz": "3041",
    "name": "Asperhofen"
  },
  {
    "plz": "3042",
    "name": "Würmla"
  },
  {
    "plz": "3051",
    "name": "St. Christophen"
  },
  {
    "plz": "3052",
    "name": "Innermanzing"
  },
  {
    "plz": "3053",
    "name": "Laaben"
  },
  {
    "plz": "3061",
    "name": "Ollersbach"
  },
  {
    "plz": "3062",
    "name": "Kirchstetten"
  },
  {
    "plz": "3071",
    "name": "Böheimkirchen"
  },
  {
    "plz": "3072",
    "name": "Kasten bei Böheimkirchen"
  },
  {
    "plz": "3073",
    "name": "Stössing"
  },
  {
    "plz": "3074",
    "name": "Michelbach"
  },
  {
    "plz": "3100",
    "name": "St. Pölten"
  },
  {
    "plz": "3101",
    "name": "St. Pölten Postfach"
  },
  {
    "plz": "3104",
    "name": "St. Pölten-Harland"
  },
  {
    "plz": "3105",
    "name": "St. Pölten-Radlberg"
  },
  {
    "plz": "3106",
    "name": "St. Pölten-Spratzern"
  },
  {
    "plz": "3107",
    "name": "St. Pölten-Traisenpark"
  },
  {
    "plz": "3108",
    "name": "St. Pölten-Wagram"
  },
  {
    "plz": "3109",
    "name": "St. Pölten"
  },
  {
    "plz": "3110",
    "name": "Neidling"
  },
  {
    "plz": "3121",
    "name": "Karlstetten"
  },
  {
    "plz": "3122",
    "name": "Gansbach"
  },
  {
    "plz": "3123",
    "name": "Obritzberg"
  },
  {
    "plz": "3124",
    "name": "Oberwölbling"
  },
  {
    "plz": "3125",
    "name": "Statzendorf"
  },
  {
    "plz": "3130",
    "name": "Herzogenburg"
  },
  {
    "plz": "3131",
    "name": "Getzersdorf"
  },
  {
    "plz": "3133",
    "name": "Traismauer"
  },
  {
    "plz": "3134",
    "name": "Nußdorf"
  },
  {
    "plz": "3140",
    "name": "Pottenbrunn"
  },
  {
    "plz": "3141",
    "name": "Kapelln"
  },
  {
    "plz": "3142",
    "name": "Perschling"
  },
  {
    "plz": "3143",
    "name": "Pyhra"
  },
  {
    "plz": "3144",
    "name": "Wald"
  },
  {
    "plz": "3150",
    "name": "Wilhelmsburg"
  },
  {
    "plz": "3151",
    "name": "St. Georgen am Steinfelde"
  },
  {
    "plz": "3153",
    "name": "Eschenau"
  },
  {
    "plz": "3160",
    "name": "Traisen"
  },
  {
    "plz": "3161",
    "name": "St. Veit an der Gölsen"
  },
  {
    "plz": "3162",
    "name": "Rainfeld"
  },
  {
    "plz": "3163",
    "name": "Rohrbach"
  },
  {
    "plz": "3170",
    "name": "Hainfeld"
  },
  {
    "plz": "3171",
    "name": "Kleinzell-Salzerbad"
  },
  {
    "plz": "3172",
    "name": "Ramsau"
  },
  {
    "plz": "3180",
    "name": "Lilienfeld"
  },
  {
    "plz": "3182",
    "name": "Marktl"
  },
  {
    "plz": "3183",
    "name": "Freiland"
  },
  {
    "plz": "3184",
    "name": "Türnitz"
  },
  {
    "plz": "3192",
    "name": "Hohenberg"
  },
  {
    "plz": "3193",
    "name": "St. Aegyd am Neuwalde"
  },
  {
    "plz": "3195",
    "name": "Kernhof"
  },
  {
    "plz": "3200",
    "name": "Ober-Grafendorf"
  },
  {
    "plz": "3202",
    "name": "Hofstetten"
  },
  {
    "plz": "3203",
    "name": "Rabenstein an der Pielach"
  },
  {
    "plz": "3204",
    "name": "Kirchberg an der Pielach"
  },
  {
    "plz": "3205",
    "name": "Weinburg"
  },
  {
    "plz": "3211",
    "name": "Loich"
  },
  {
    "plz": "3212",
    "name": "Schwarzenbach an der Pielach"
  },
  {
    "plz": "3213",
    "name": "Frankenfels"
  },
  {
    "plz": "3214",
    "name": "Puchenstuben"
  },
  {
    "plz": "3221",
    "name": "Gösing an der Mariazellerbahn"
  },
  {
    "plz": "3222",
    "name": "Annaberg"
  },
  {
    "plz": "3223",
    "name": "Wienerbruck"
  },
  {
    "plz": "3224",
    "name": "Mitterbach"
  },
  {
    "plz": "3231",
    "name": "St. Margarethen an der Sierning"
  },
  {
    "plz": "3232",
    "name": "Bischofstetten"
  },
  {
    "plz": "3233",
    "name": "Kilb"
  },
  {
    "plz": "3240",
    "name": "Mank"
  },
  {
    "plz": "3241",
    "name": "Kirnberg an der Mank"
  },
  {
    "plz": "3242",
    "name": "Texing"
  },
  {
    "plz": "3243",
    "name": "St. Leonhard am Forst"
  },
  {
    "plz": "3244",
    "name": "Ruprechtshofen"
  },
  {
    "plz": "3250",
    "name": "Wieselburg"
  },
  {
    "plz": "3251",
    "name": "Purgstall"
  },
  {
    "plz": "3252",
    "name": "Petzenkirchen"
  },
  {
    "plz": "3253",
    "name": "Erlauf"
  },
  {
    "plz": "3254",
    "name": "Bergland"
  },
  {
    "plz": "3261",
    "name": "Steinakirchen am Forst"
  },
  {
    "plz": "3262",
    "name": "Wang"
  },
  {
    "plz": "3263",
    "name": "Randegg"
  },
  {
    "plz": "3264",
    "name": "Gresten"
  },
  {
    "plz": "3270",
    "name": "Scheibbs"
  },
  {
    "plz": "3281",
    "name": "Oberndorf an der Melk"
  },
  {
    "plz": "3282",
    "name": "St. Georgen an der Leys"
  },
  {
    "plz": "3283",
    "name": "St. Anton an der Jeßnitz"
  },
  {
    "plz": "3291",
    "name": "Kienberg"
  },
  {
    "plz": "3292",
    "name": "Gaming"
  },
  {
    "plz": "3293",
    "name": "Lunz am See"
  },
  {
    "plz": "3294",
    "name": "Langau"
  },
  {
    "plz": "3295",
    "name": "Lackenhof"
  },
  {
    "plz": "3300",
    "name": "Amstetten"
  },
  {
    "plz": "3304",
    "name": "St. Georgen am Ybbsfelde"
  },
  {
    "plz": "3305",
    "name": "Amstetten"
  },
  {
    "plz": "3311",
    "name": "Zeillern"
  },
  {
    "plz": "3312",
    "name": "Oed"
  },
  {
    "plz": "3313",
    "name": "Wallsee"
  },
  {
    "plz": "3314",
    "name": "Strengberg"
  },
  {
    "plz": "3321",
    "name": "Ardagger"
  },
  {
    "plz": "3322",
    "name": "Viehdorf"
  },
  {
    "plz": "3323",
    "name": "Neustadtl an der Donau"
  },
  {
    "plz": "3324",
    "name": "Euratsfeld"
  },
  {
    "plz": "3325",
    "name": "Ferschnitz"
  },
  {
    "plz": "3331",
    "name": "Kematen"
  },
  {
    "plz": "3332",
    "name": "Rosenau am Sonntagberg"
  },
  {
    "plz": "3333",
    "name": "Böhlerwerk"
  },
  {
    "plz": "3334",
    "name": "Gaflenz"
  },
  {
    "plz": "3335",
    "name": "Weyer"
  },
  {
    "plz": "3340",
    "name": "Waidhofen an der Ybbs"
  },
  {
    "plz": "3341",
    "name": "Ybbsitz"
  },
  {
    "plz": "3342",
    "name": "Opponitz"
  },
  {
    "plz": "3343",
    "name": "Hollenstein an der Ybbs"
  },
  {
    "plz": "3344",
    "name": "St. Georgen am Reith"
  },
  {
    "plz": "3345",
    "name": "Göstling an der Ybbs"
  },
  {
    "plz": "3350",
    "name": "Haag"
  },
  {
    "plz": "3351",
    "name": "Weistrach"
  },
  {
    "plz": "3352",
    "name": "St. Peter in der Au"
  },
  {
    "plz": "3353",
    "name": "Seitenstetten"
  },
  {
    "plz": "3354",
    "name": "Wolfsbach"
  },
  {
    "plz": "3355",
    "name": "Ertl"
  },
  {
    "plz": "3356",
    "name": "Biberbach"
  },
  {
    "plz": "3361",
    "name": "Aschbach Markt"
  },
  {
    "plz": "3362",
    "name": "Mauer-Öhling"
  },
  {
    "plz": "3363",
    "name": "Ulmerfeld-Hausmening"
  },
  {
    "plz": "3364",
    "name": "Neuhofen an der Ybbs"
  },
  {
    "plz": "3365",
    "name": "Allhartsberg"
  },
  {
    "plz": "3366",
    "name": "Kühberg"
  },
  {
    "plz": "3370",
    "name": "Ybbs an der Donau"
  },
  {
    "plz": "3371",
    "name": "Neumarkt an der Ybbs"
  },
  {
    "plz": "3372",
    "name": "Blindenmarkt"
  },
  {
    "plz": "3373",
    "name": "Kemmelbach"
  },
  {
    "plz": "3374",
    "name": "Säusenstein"
  },
  {
    "plz": "3375",
    "name": "Krummnußbaum"
  },
  {
    "plz": "3376",
    "name": "St. Martin-Karlsbach"
  },
  {
    "plz": "3380",
    "name": "Pöchlarn"
  },
  {
    "plz": "3381",
    "name": "Golling"
  },
  {
    "plz": "3382",
    "name": "Loosdorf"
  },
  {
    "plz": "3383",
    "name": "Hürm"
  },
  {
    "plz": "3384",
    "name": "Groß Sierning"
  },
  {
    "plz": "3385",
    "name": "Prinzersdorf"
  },
  {
    "plz": "3386",
    "name": "Hafnerbach"
  },
  {
    "plz": "3387",
    "name": "Groß Sierning"
  },
  {
    "plz": "3388",
    "name": "Markersdorf-Haindorf"
  },
  {
    "plz": "3390",
    "name": "Melk"
  },
  {
    "plz": "3392",
    "name": "Dunkelsteinerwald"
  },
  {
    "plz": "3393",
    "name": "Matzleinsdorf"
  },
  {
    "plz": "3394",
    "name": "Schönbühel-Aggsbach"
  },
  {
    "plz": "3400",
    "name": "Klosterneuburg"
  },
  {
    "plz": "3402",
    "name": "Klosterneuburg"
  },
  {
    "plz": "3404",
    "name": "Klosterneuburg"
  },
  {
    "plz": "3413",
    "name": "Hintersdorf"
  },
  {
    "plz": "3420",
    "name": "Kritzendorf"
  },
  {
    "plz": "3421",
    "name": "Höflein an der Donau"
  },
  {
    "plz": "3422",
    "name": "Greifenstein"
  },
  {
    "plz": "3423",
    "name": "St. Andrä-Wördern"
  },
  {
    "plz": "3424",
    "name": "Zeiselmauer"
  },
  {
    "plz": "3425",
    "name": "Langenlebarn"
  },
  {
    "plz": "3426",
    "name": "Muckendorf-Wipfing"
  },
  {
    "plz": "3430",
    "name": "Tulln an der Donau"
  },
  {
    "plz": "3433",
    "name": "Königstetten"
  },
  {
    "plz": "3434",
    "name": "Tulbing"
  },
  {
    "plz": "3435",
    "name": "Zwentendorf an der Donau"
  },
  {
    "plz": "3441",
    "name": "Judenau"
  },
  {
    "plz": "3442",
    "name": "Langenrohr"
  },
  {
    "plz": "3443",
    "name": "Sieghartskirchen"
  },
  {
    "plz": "3451",
    "name": "Michelhausen"
  },
  {
    "plz": "3452",
    "name": "Atzenbrugg"
  },
  {
    "plz": "3454",
    "name": "Sitzenberg-Reidling"
  },
  {
    "plz": "3462",
    "name": "Absdorf"
  },
  {
    "plz": "3463",
    "name": "Stetteldorf am Wagram"
  },
  {
    "plz": "3464",
    "name": "Hausleiten"
  },
  {
    "plz": "3465",
    "name": "Königsbrunn am Wagram"
  },
  {
    "plz": "3470",
    "name": "Kirchberg am Wagram"
  },
  {
    "plz": "3471",
    "name": "Großriedenthal"
  },
  {
    "plz": "3472",
    "name": "Hohenwarth"
  },
  {
    "plz": "3473",
    "name": "Mühlbach am Manhartsberg"
  },
  {
    "plz": "3474",
    "name": "Altenwörth"
  },
  {
    "plz": "3481",
    "name": "Fels am Wagram"
  },
  {
    "plz": "3482",
    "name": "Gösing am Wagram"
  },
  {
    "plz": "3483",
    "name": "Feuersbrunn"
  },
  {
    "plz": "3484",
    "name": "Grafenwörth"
  },
  {
    "plz": "3485",
    "name": "Haitzendorf"
  },
  {
    "plz": "3491",
    "name": "Straß im Straßertale"
  },
  {
    "plz": "3492",
    "name": "Etsdorf am Kamp"
  },
  {
    "plz": "3493",
    "name": "Hadersdorf am Kamp"
  },
  {
    "plz": "3494",
    "name": "Gedersdorf"
  },
  {
    "plz": "3495",
    "name": "Rohrendorf bei Krems"
  },
  {
    "plz": "3500",
    "name": "Krems an der Donau"
  },
  {
    "plz": "3502",
    "name": "Krems-Lerchenfeld"
  },
  {
    "plz": "3504",
    "name": "Krems-Stein"
  },
  {
    "plz": "3505",
    "name": "Krems"
  },
  {
    "plz": "3506",
    "name": "Krems-Hollenburg"
  },
  {
    "plz": "3508",
    "name": "Paudorf"
  },
  {
    "plz": "3511",
    "name": "Furth bei Göttweig"
  },
  {
    "plz": "3512",
    "name": "Mautern"
  },
  {
    "plz": "3521",
    "name": "Obermeisling"
  },
  {
    "plz": "3522",
    "name": "Lichtenau"
  },
  {
    "plz": "3524",
    "name": "Grainbrunn"
  },
  {
    "plz": "3525",
    "name": "Sallingberg"
  },
  {
    "plz": "3531",
    "name": "Niedernondorf"
  },
  {
    "plz": "3532",
    "name": "Rastenfeld"
  },
  {
    "plz": "3533",
    "name": "Friedersbach"
  },
  {
    "plz": "3541",
    "name": "Senftenberg"
  },
  {
    "plz": "3542",
    "name": "Gföhl"
  },
  {
    "plz": "3543",
    "name": "Krumau am Kamp"
  },
  {
    "plz": "3544",
    "name": "Idolsberg"
  },
  {
    "plz": "3550",
    "name": "Langenlois"
  },
  {
    "plz": "3552",
    "name": "Lengenfeld"
  },
  {
    "plz": "3553",
    "name": "Schiltern"
  },
  {
    "plz": "3561",
    "name": "Zöbing"
  },
  {
    "plz": "3562",
    "name": "Schönberg"
  },
  {
    "plz": "3564",
    "name": "Plank am Kamp"
  },
  {
    "plz": "3571",
    "name": "Gars am Kamp"
  },
  {
    "plz": "3572",
    "name": "St. Leonhard am Hornerwald"
  },
  {
    "plz": "3573",
    "name": "Rosenburg"
  },
  {
    "plz": "3580",
    "name": "Horn"
  },
  {
    "plz": "3591",
    "name": "Altenburg"
  },
  {
    "plz": "3592",
    "name": "Röhrenbach"
  },
  {
    "plz": "3593",
    "name": "Neupölla"
  },
  {
    "plz": "3594",
    "name": "Franzen"
  },
  {
    "plz": "3595",
    "name": "Brunn an der Wild"
  },
  {
    "plz": "3601",
    "name": "Dürnstein"
  },
  {
    "plz": "3602",
    "name": "Rossatz"
  },
  {
    "plz": "3610",
    "name": "Weißenkirchen in der Wachau"
  },
  {
    "plz": "3611",
    "name": "Großheinrichschlag"
  },
  {
    "plz": "3613",
    "name": "Albrechtsberg an der Großen Krems"
  },
  {
    "plz": "3620",
    "name": "Spitz"
  },
  {
    "plz": "3621",
    "name": "Mitterarnsdorf"
  },
  {
    "plz": "3622",
    "name": "Mühldorf"
  },
  {
    "plz": "3623",
    "name": "Kottes"
  },
  {
    "plz": "3631",
    "name": "Ottenschlag"
  },
  {
    "plz": "3632",
    "name": "Bad Traunstein"
  },
  {
    "plz": "3633",
    "name": "Schönbach"
  },
  {
    "plz": "3641",
    "name": "Aggsbach Markt"
  },
  {
    "plz": "3642",
    "name": "Aggsbach Dorf"
  },
  {
    "plz": "3643",
    "name": "Maria Laach am Jauerling"
  },
  {
    "plz": "3644",
    "name": "Emmersdorf an der Donau"
  },
  {
    "plz": "3650",
    "name": "Pöggstall"
  },
  {
    "plz": "3652",
    "name": "Leiben"
  },
  {
    "plz": "3653",
    "name": "Weiten"
  },
  {
    "plz": "3654",
    "name": "Raxendorf"
  },
  {
    "plz": "3660",
    "name": "Klein-Pöchlarn"
  },
  {
    "plz": "3661",
    "name": "Artstetten"
  },
  {
    "plz": "3662",
    "name": "Münichreith"
  },
  {
    "plz": "3663",
    "name": "Laimbach am Ostrong"
  },
  {
    "plz": "3664",
    "name": "Martinsberg"
  },
  {
    "plz": "3665",
    "name": "Gutenbrunn"
  },
  {
    "plz": "3671",
    "name": "Marbach an der Donau"
  },
  {
    "plz": "3672",
    "name": "Maria Taferl"
  },
  {
    "plz": "3680",
    "name": "Persenbeug"
  },
  {
    "plz": "3681",
    "name": "Hofamt Priel"
  },
  {
    "plz": "3683",
    "name": "Yspertal"
  },
  {
    "plz": "3684",
    "name": "St. Oswald"
  },
  {
    "plz": "3691",
    "name": "Nöchling"
  },
  {
    "plz": "3701",
    "name": "Großweikersdorf"
  },
  {
    "plz": "3702",
    "name": "Niederrußbach"
  },
  {
    "plz": "3704",
    "name": "Glaubendorf"
  },
  {
    "plz": "3710",
    "name": "Ziersdorf"
  },
  {
    "plz": "3711",
    "name": "Großmeiseldorf"
  },
  {
    "plz": "3712",
    "name": "Maissau"
  },
  {
    "plz": "3713",
    "name": "Harmannsdorf"
  },
  {
    "plz": "3714",
    "name": "Sitzendorf an der Schmida"
  },
  {
    "plz": "3720",
    "name": "Ravelsbach"
  },
  {
    "plz": "3721",
    "name": "Limberg"
  },
  {
    "plz": "3722",
    "name": "Straning"
  },
  {
    "plz": "3730",
    "name": "Eggenburg"
  },
  {
    "plz": "3741",
    "name": "Pulkau"
  },
  {
    "plz": "3742",
    "name": "Theras"
  },
  {
    "plz": "3743",
    "name": "Röschitz"
  },
  {
    "plz": "3744",
    "name": "Stockern"
  },
  {
    "plz": "3751",
    "name": "Sigmundsherberg"
  },
  {
    "plz": "3752",
    "name": "Walkenstein"
  },
  {
    "plz": "3753",
    "name": "Hötzelsdorf"
  },
  {
    "plz": "3754",
    "name": "Irnfritz"
  },
  {
    "plz": "3761",
    "name": "Messern"
  },
  {
    "plz": "3762",
    "name": "Ludweis"
  },
  {
    "plz": "3763",
    "name": "Japons"
  },
  {
    "plz": "3800",
    "name": "Göpfritz an der Wild"
  },
  {
    "plz": "3804",
    "name": "Allentsteig"
  },
  {
    "plz": "3811",
    "name": "Kirchberg an der Wild"
  },
  {
    "plz": "3812",
    "name": "Groß Siegharts"
  },
  {
    "plz": "3813",
    "name": "Dietmanns"
  },
  {
    "plz": "3814",
    "name": "Aigen"
  },
  {
    "plz": "3820",
    "name": "Raabs an der Thaya"
  },
  {
    "plz": "3822",
    "name": "Karlstein an der Thaya"
  },
  {
    "plz": "3823",
    "name": "Weikertschlag an der Thaya"
  },
  {
    "plz": "3824",
    "name": "Großau"
  },
  {
    "plz": "3830",
    "name": "Waidhofen an der Thaya"
  },
  {
    "plz": "3834",
    "name": "Pfaffenschlag bei Waidhofen an der Thaya"
  },
  {
    "plz": "3841",
    "name": "Windigsteig"
  },
  {
    "plz": "3842",
    "name": "Thaya"
  },
  {
    "plz": "3843",
    "name": "Dobersberg"
  },
  {
    "plz": "3844",
    "name": "Waldkirchen an der Thaya"
  },
  {
    "plz": "3851",
    "name": "Kautzen"
  },
  {
    "plz": "3852",
    "name": "Gastern"
  },
  {
    "plz": "3860",
    "name": "Heidenreichstein"
  },
  {
    "plz": "3861",
    "name": "Eggern"
  },
  {
    "plz": "3862",
    "name": "Eisgarn"
  },
  {
    "plz": "3863",
    "name": "Reingers"
  },
  {
    "plz": "3871",
    "name": "Nagelberg"
  },
  {
    "plz": "3872",
    "name": "Langegg"
  },
  {
    "plz": "3873",
    "name": "Brand"
  },
  {
    "plz": "3874",
    "name": "Litschau"
  },
  {
    "plz": "3900",
    "name": "Schwarzenau"
  },
  {
    "plz": "3902",
    "name": "Vitis"
  },
  {
    "plz": "3903",
    "name": "Echsenbach"
  },
  {
    "plz": "3910",
    "name": "Zwettl"
  },
  {
    "plz": "3911",
    "name": "Rappottenstein"
  },
  {
    "plz": "3912",
    "name": "Grafenschlag"
  },
  {
    "plz": "3913",
    "name": "Großgöttfritz"
  },
  {
    "plz": "3914",
    "name": "Waldhausen"
  },
  {
    "plz": "3920",
    "name": "Groß Gerungs"
  },
  {
    "plz": "3921",
    "name": "Langschlag"
  },
  {
    "plz": "3922",
    "name": "Großschönau"
  },
  {
    "plz": "3923",
    "name": "Jagenbach"
  },
  {
    "plz": "3924",
    "name": "Rosenau Schloß"
  },
  {
    "plz": "3925",
    "name": "Arbesbach"
  },
  {
    "plz": "3931",
    "name": "Schweiggers"
  },
  {
    "plz": "3932",
    "name": "Kirchberg am Walde"
  },
  {
    "plz": "3942",
    "name": "Hirschbach"
  },
  {
    "plz": "3943",
    "name": "Schrems"
  },
  {
    "plz": "3944",
    "name": "Pürbach"
  },
  {
    "plz": "3945",
    "name": "Hoheneich"
  },
  {
    "plz": "3950",
    "name": "Gmünd"
  },
  {
    "plz": "3961",
    "name": "Waldenstein"
  },
  {
    "plz": "3962",
    "name": "Heinrichs bei Weitra"
  },
  {
    "plz": "3970",
    "name": "Weitra"
  },
  {
    "plz": "3971",
    "name": "St. Martin"
  },
  {
    "plz": "3972",
    "name": "Bad Großpertholz"
  },
  {
    "plz": "3973",
    "name": "Karlstift"
  },
  {
    "plz": "4000",
    "name": "Allhaming"
  },
  {
    "plz": "4010",
    "name": "Linz"
  },
  {
    "plz": "4016",
    "name": "Linz"
  },
  {
    "plz": "4018",
    "name": "Linz"
  },
  {
    "plz": "4020",
    "name": "Linz"
  },
  {
    "plz": "4021",
    "name": "Linz"
  },
  {
    "plz": "4024",
    "name": "Linz"
  },
  {
    "plz": "4025",
    "name": "Linz"
  },
  {
    "plz": "4030",
    "name": "Linz"
  },
  {
    "plz": "4031",
    "name": "Linz"
  },
  {
    "plz": "4032",
    "name": "Linz"
  },
  {
    "plz": "4033",
    "name": "Linz-Ebelsberg"
  },
  {
    "plz": "4036",
    "name": "Linz"
  },
  {
    "plz": "4040",
    "name": "Linz"
  },
  {
    "plz": "4041",
    "name": "Linz"
  },
  {
    "plz": "4046",
    "name": "Linz"
  },
  {
    "plz": "4048",
    "name": "Puchenau"
  },
  {
    "plz": "4050",
    "name": "Traun"
  },
  {
    "plz": "4052",
    "name": "Ansfelden"
  },
  {
    "plz": "4053",
    "name": "Haid"
  },
  {
    "plz": "4055",
    "name": "Pucking"
  },
  {
    "plz": "4056",
    "name": "Sankt Martin"
  },
  {
    "plz": "4059",
    "name": "Leonding"
  },
  {
    "plz": "4060",
    "name": "Leonding"
  },
  {
    "plz": "4061",
    "name": "Pasching"
  },
  {
    "plz": "4062",
    "name": "Thening"
  },
  {
    "plz": "4063",
    "name": "Hörsching"
  },
  {
    "plz": "4064",
    "name": "Oftering"
  },
  {
    "plz": "4066",
    "name": "Pasching"
  },
  {
    "plz": "4070",
    "name": "Eferding"
  },
  {
    "plz": "4072",
    "name": "Alkoven"
  },
  {
    "plz": "4073",
    "name": "Wilhering"
  },
  {
    "plz": "4074",
    "name": "Stroheim"
  },
  {
    "plz": "4075",
    "name": "Breitenaich"
  },
  {
    "plz": "4076",
    "name": "St. Marienkirchen an der Polsenz"
  },
  {
    "plz": "4077",
    "name": "Straßham"
  },
  {
    "plz": "4081",
    "name": "Hartkirchen"
  },
  {
    "plz": "4082",
    "name": "Aschach an der Donau"
  },
  {
    "plz": "4083",
    "name": "Haibach ob der Donau"
  },
  {
    "plz": "4084",
    "name": "St. Agatha"
  },
  {
    "plz": "4085",
    "name": "Wesenufer"
  },
  {
    "plz": "4090",
    "name": "Engelhartszell"
  },
  {
    "plz": "4091",
    "name": "Vichtenstein"
  },
  {
    "plz": "4092",
    "name": "Esternberg"
  },
  {
    "plz": "4100",
    "name": "Ottensheim"
  },
  {
    "plz": "4101",
    "name": "Feldkirchen an der Donau"
  },
  {
    "plz": "4102",
    "name": "Goldwörth"
  },
  {
    "plz": "4111",
    "name": "Walding"
  },
  {
    "plz": "4112",
    "name": "Rottenegg"
  },
  {
    "plz": "4113",
    "name": "St. Martin im Mühlkreis"
  },
  {
    "plz": "4114",
    "name": "Neuhaus an der Donau"
  },
  {
    "plz": "4115",
    "name": "Kleinzell im Mühlkreis"
  },
  {
    "plz": "4116",
    "name": "St. Ulrich im Mühlkreis"
  },
  {
    "plz": "4120",
    "name": "Neufelden"
  },
  {
    "plz": "4121",
    "name": "Altenfelden"
  },
  {
    "plz": "4122",
    "name": "Arnreit"
  },
  {
    "plz": "4131",
    "name": "Kirchberg ob der Donau"
  },
  {
    "plz": "4132",
    "name": "Lembach im Mühlkreis"
  },
  {
    "plz": "4133",
    "name": "Niederkappel"
  },
  {
    "plz": "4134",
    "name": "Putzleinsdorf"
  },
  {
    "plz": "4141",
    "name": "Pfarrkirchen im Mühlkreis"
  },
  {
    "plz": "4142",
    "name": "Hofkirchen im Mühlkreis"
  },
  {
    "plz": "4143",
    "name": "Neustift im Mühlkreis"
  },
  {
    "plz": "4144",
    "name": "Oberkappel"
  },
  {
    "plz": "4150",
    "name": "Rohrbach in Oberösterreich"
  },
  {
    "plz": "4151",
    "name": "Oepping"
  },
  {
    "plz": "4152",
    "name": "Sarleinsbach"
  },
  {
    "plz": "4153",
    "name": "Peilstein im Mühlviertel"
  },
  {
    "plz": "4154",
    "name": "Kollerschlag"
  },
  {
    "plz": "4155",
    "name": "Nebelberg"
  },
  {
    "plz": "4160",
    "name": "Aigen-Schlägl"
  },
  {
    "plz": "4161",
    "name": "Ulrichsberg"
  },
  {
    "plz": "4162",
    "name": "Julbach"
  },
  {
    "plz": "4163",
    "name": "Klaffer am Hochficht"
  },
  {
    "plz": "4164",
    "name": "Schwarzenberg am Böhmerwald"
  },
  {
    "plz": "4170",
    "name": "Haslach an der Mühl"
  },
  {
    "plz": "4171",
    "name": "St. Peter am Wimberg"
  },
  {
    "plz": "4172",
    "name": "St. Johann am Wimberg"
  },
  {
    "plz": "4173",
    "name": "St. Veit im Mühlkreis"
  },
  {
    "plz": "4174",
    "name": "Niederwaldkirchen"
  },
  {
    "plz": "4175",
    "name": "Herzogsdorf"
  },
  {
    "plz": "4180",
    "name": "Zwettl an der Rodl"
  },
  {
    "plz": "4181",
    "name": "Oberneukirchen"
  },
  {
    "plz": "4182",
    "name": "Waxenberg"
  },
  {
    "plz": "4183",
    "name": "Traberg"
  },
  {
    "plz": "4184",
    "name": "Helfenberg"
  },
  {
    "plz": "4190",
    "name": "Bad Leonfelden"
  },
  {
    "plz": "4191",
    "name": "Vorderweißenbach"
  },
  {
    "plz": "4192",
    "name": "Schenkenfelden"
  },
  {
    "plz": "4193",
    "name": "Reichenthal"
  },
  {
    "plz": "4201",
    "name": "Gramastetten"
  },
  {
    "plz": "4202",
    "name": "Hellmonsödt"
  },
  {
    "plz": "4203",
    "name": "Altenberg bei Linz"
  },
  {
    "plz": "4204",
    "name": "Reichenau im Mühlkreis"
  },
  {
    "plz": "4205",
    "name": "Kirchschlag bei Linz"
  },
  {
    "plz": "4209",
    "name": "Engerwitzdorf"
  },
  {
    "plz": "4210",
    "name": "Gallneukirchen"
  },
  {
    "plz": "4211",
    "name": "Alberndorf in der Riedmark"
  },
  {
    "plz": "4212",
    "name": "Neumarkt im Mühlkreis"
  },
  {
    "plz": "4213",
    "name": "Unterweitersdorf"
  },
  {
    "plz": "4221",
    "name": "Steyregg"
  },
  {
    "plz": "4222",
    "name": "St. Georgen an der Gusen"
  },
  {
    "plz": "4223",
    "name": "Katsdorf"
  },
  {
    "plz": "4224",
    "name": "Wartberg ob der Aist"
  },
  {
    "plz": "4225",
    "name": "Luftenberg"
  },
  {
    "plz": "4230",
    "name": "Pregarten"
  },
  {
    "plz": "4231",
    "name": "Untergaisbach"
  },
  {
    "plz": "4232",
    "name": "Hagenberg im Mühlkreis"
  },
  {
    "plz": "4240",
    "name": "Freistadt"
  },
  {
    "plz": "4242",
    "name": "Hirschbach im Mühlkreis"
  },
  {
    "plz": "4251",
    "name": "Sandl"
  },
  {
    "plz": "4252",
    "name": "Liebenau"
  },
  {
    "plz": "4261",
    "name": "Rainbach im Mühlkreis"
  },
  {
    "plz": "4262",
    "name": "Leopoldschlag"
  },
  {
    "plz": "4263",
    "name": "Windhaag bei Freistadt"
  },
  {
    "plz": "4264",
    "name": "Grünbach"
  },
  {
    "plz": "4271",
    "name": "St. Oswald bei Freistadt"
  },
  {
    "plz": "4272",
    "name": "Weitersfelden"
  },
  {
    "plz": "4273",
    "name": "Unterweißenbach"
  },
  {
    "plz": "4274",
    "name": "Schönau im Mühlkreis"
  },
  {
    "plz": "4280",
    "name": "Königswiesen"
  },
  {
    "plz": "4281",
    "name": "Mönchdorf"
  },
  {
    "plz": "4282",
    "name": "Pierbach"
  },
  {
    "plz": "4283",
    "name": "Bad Zell"
  },
  {
    "plz": "4284",
    "name": "Tragwein"
  },
  {
    "plz": "4291",
    "name": "Lasberg"
  },
  {
    "plz": "4292",
    "name": "Kefermarkt"
  },
  {
    "plz": "4293",
    "name": "Gutau"
  },
  {
    "plz": "4294",
    "name": "St. Leonhard bei Freistadt"
  },
  {
    "plz": "4300",
    "name": "St. Valentin"
  },
  {
    "plz": "4303",
    "name": "St. Pantaleon"
  },
  {
    "plz": "4310",
    "name": "Mauthausen"
  },
  {
    "plz": "4311",
    "name": "Schwertberg"
  },
  {
    "plz": "4312",
    "name": "Ried in der Riedmark"
  },
  {
    "plz": "4320",
    "name": "Perg"
  },
  {
    "plz": "4322",
    "name": "Windhaag bei Perg"
  },
  {
    "plz": "4323",
    "name": "Münzbach"
  },
  {
    "plz": "4324",
    "name": "Rechberg"
  },
  {
    "plz": "4331",
    "name": "Naarn"
  },
  {
    "plz": "4332",
    "name": "Au an der Donau"
  },
  {
    "plz": "4341",
    "name": "Arbing"
  },
  {
    "plz": "4342",
    "name": "Baumgartenberg"
  },
  {
    "plz": "4343",
    "name": "Mitterkirchen"
  },
  {
    "plz": "4351",
    "name": "Saxen"
  },
  {
    "plz": "4352",
    "name": "Klam"
  },
  {
    "plz": "4360",
    "name": "Grein"
  },
  {
    "plz": "4362",
    "name": "Bad Kreuzen"
  },
  {
    "plz": "4363",
    "name": "Pabneukirchen"
  },
  {
    "plz": "4364",
    "name": "St. Thomas"
  },
  {
    "plz": "4371",
    "name": "Dimbach"
  },
  {
    "plz": "4372",
    "name": "St. Georgen am Walde"
  },
  {
    "plz": "4381",
    "name": "St. Nikola an der Donau"
  },
  {
    "plz": "4382",
    "name": "Sarmingstein"
  },
  {
    "plz": "4391",
    "name": "Waldhausen im Strudengau"
  },
  {
    "plz": "4392",
    "name": "Dorfstetten"
  },
  {
    "plz": "4400",
    "name": "Steyr"
  },
  {
    "plz": "4401",
    "name": "Steyr Postfach"
  },
  {
    "plz": "4403",
    "name": "Steyr"
  },
  {
    "plz": "4405",
    "name": "Steyr-Münichholz"
  },
  {
    "plz": "4407",
    "name": "Steyr-Gleink"
  },
  {
    "plz": "4410",
    "name": "Steyr"
  },
  {
    "plz": "4421",
    "name": "Aschach an der Steyr"
  },
  {
    "plz": "4431",
    "name": "Haidershofen"
  },
  {
    "plz": "4432",
    "name": "Ernsthofen"
  },
  {
    "plz": "4441",
    "name": "Behamberg"
  },
  {
    "plz": "4442",
    "name": "Kleinraming"
  },
  {
    "plz": "4443",
    "name": "Maria Neustift"
  },
  {
    "plz": "4451",
    "name": "Garsten"
  },
  {
    "plz": "4452",
    "name": "Ternberg"
  },
  {
    "plz": "4453",
    "name": "Trattenbach"
  },
  {
    "plz": "4460",
    "name": "Losenstein"
  },
  {
    "plz": "4461",
    "name": "Laussa"
  },
  {
    "plz": "4462",
    "name": "Reichraming"
  },
  {
    "plz": "4463",
    "name": "Großraming"
  },
  {
    "plz": "4464",
    "name": "Kleinreifling"
  },
  {
    "plz": "4470",
    "name": "Enns"
  },
  {
    "plz": "4481",
    "name": "Asten"
  },
  {
    "plz": "4482",
    "name": "Ennsdorf"
  },
  {
    "plz": "4483",
    "name": "Hargelsberg"
  },
  {
    "plz": "4484",
    "name": "Kronstorf"
  },
  {
    "plz": "4490",
    "name": "St. Florian"
  },
  {
    "plz": "4491",
    "name": "Niederneukirchen"
  },
  {
    "plz": "4492",
    "name": "Hofkirchen im Traunkreis"
  },
  {
    "plz": "4493",
    "name": "Wolfern"
  },
  {
    "plz": "4501",
    "name": "Neuhofen an der Krems"
  },
  {
    "plz": "4502",
    "name": "St. Marien"
  },
  {
    "plz": "4511",
    "name": "Allhaming"
  },
  {
    "plz": "4521",
    "name": "Schiedlberg"
  },
  {
    "plz": "4522",
    "name": "Sierning"
  },
  {
    "plz": "4523",
    "name": "Neuzeug"
  },
  {
    "plz": "4531",
    "name": "Kematen an der Krems"
  },
  {
    "plz": "4532",
    "name": "Rohr im Kremstal"
  },
  {
    "plz": "4533",
    "name": "Piberbach"
  },
  {
    "plz": "4540",
    "name": "Bad Hall"
  },
  {
    "plz": "4541",
    "name": "Adlwang"
  },
  {
    "plz": "4542",
    "name": "Nußbach"
  },
  {
    "plz": "4550",
    "name": "Kremsmünster"
  },
  {
    "plz": "4551",
    "name": "Ried im Traunkreis"
  },
  {
    "plz": "4552",
    "name": "Wartberg an der Krems"
  },
  {
    "plz": "4553",
    "name": "Schlierbach"
  },
  {
    "plz": "4554",
    "name": "Oberschlierbach"
  },
  {
    "plz": "4560",
    "name": "Kirchdorf an der Krems"
  },
  {
    "plz": "4562",
    "name": "Steinbach am Ziehberg"
  },
  {
    "plz": "4563",
    "name": "Micheldorf"
  },
  {
    "plz": "4564",
    "name": "Klaus an der Pyhrnbahn"
  },
  {
    "plz": "4565",
    "name": "Inzersdorf im Kremstal"
  },
  {
    "plz": "4571",
    "name": "Steyrling"
  },
  {
    "plz": "4572",
    "name": "St. Pankraz"
  },
  {
    "plz": "4573",
    "name": "Hinterstoder"
  },
  {
    "plz": "4574",
    "name": "Vorderstoder"
  },
  {
    "plz": "4575",
    "name": "Roßleithen"
  },
  {
    "plz": "4580",
    "name": "Windischgarsten"
  },
  {
    "plz": "4581",
    "name": "Rosenau am Hengstpaß"
  },
  {
    "plz": "4582",
    "name": "Spital am Pyhrn"
  },
  {
    "plz": "4591",
    "name": "Molln"
  },
  {
    "plz": "4592",
    "name": "Leonstein"
  },
  {
    "plz": "4593",
    "name": "Obergrünburg"
  },
  {
    "plz": "4594",
    "name": "Grünburg"
  },
  {
    "plz": "4595",
    "name": "Waldneukirchen"
  },
  {
    "plz": "4596",
    "name": "Steinbach an der Steyr"
  },
  {
    "plz": "4600",
    "name": "Wels"
  },
  {
    "plz": "4601",
    "name": "Wels"
  },
  {
    "plz": "4602",
    "name": "Wels Postfach"
  },
  {
    "plz": "4603",
    "name": "Wels"
  },
  {
    "plz": "4605",
    "name": "Wels"
  },
  {
    "plz": "4606",
    "name": "Wels"
  },
  {
    "plz": "4609",
    "name": "Thalheim bei Wels"
  },
  {
    "plz": "4610",
    "name": "Wels"
  },
  {
    "plz": "4611",
    "name": "Buchkirchen"
  },
  {
    "plz": "4612",
    "name": "Scharten"
  },
  {
    "plz": "4613",
    "name": "Mistelbach bei Wels"
  },
  {
    "plz": "4614",
    "name": "Marchtrenk"
  },
  {
    "plz": "4615",
    "name": "Holzhausen"
  },
  {
    "plz": "4616",
    "name": "Weißkirchen"
  },
  {
    "plz": "4618",
    "name": "Höllwiesen"
  },
  {
    "plz": "4619",
    "name": "Wels"
  },
  {
    "plz": "4621",
    "name": "Sipbachzell"
  },
  {
    "plz": "4622",
    "name": "Eggendorf im Traunkreis"
  },
  {
    "plz": "4623",
    "name": "Gunskirchen"
  },
  {
    "plz": "4624",
    "name": "Pennewang"
  },
  {
    "plz": "4625",
    "name": "Offenhausen"
  },
  {
    "plz": "4631",
    "name": "Krenglbach"
  },
  {
    "plz": "4632",
    "name": "Pichl bei Wels"
  },
  {
    "plz": "4633",
    "name": "Kematen am Innbach"
  },
  {
    "plz": "4641",
    "name": "Steinhaus"
  },
  {
    "plz": "4642",
    "name": "Sattledt"
  },
  {
    "plz": "4643",
    "name": "Pettenbach"
  },
  {
    "plz": "4644",
    "name": "Scharnstein"
  },
  {
    "plz": "4645",
    "name": "Grünau im Almtal"
  },
  {
    "plz": "4650",
    "name": "Lambach"
  },
  {
    "plz": "4651",
    "name": "Stadl-Paura"
  },
  {
    "plz": "4652",
    "name": "Steinerkirchen an der Traun"
  },
  {
    "plz": "4653",
    "name": "Eberstalzell"
  },
  {
    "plz": "4654",
    "name": "Bad Wimsbach-Neydharting"
  },
  {
    "plz": "4655",
    "name": "Vorchdorf"
  },
  {
    "plz": "4656",
    "name": "Kirchham"
  },
  {
    "plz": "4659",
    "name": "Edt bei Lambach"
  },
  {
    "plz": "4661",
    "name": "Roitham am Traunfall"
  },
  {
    "plz": "4662",
    "name": "Steyrermühl"
  },
  {
    "plz": "4663",
    "name": "Laakirchen"
  },
  {
    "plz": "4664",
    "name": "Oberweis"
  },
  {
    "plz": "4671",
    "name": "Neukirchen bei Lambach"
  },
  {
    "plz": "4672",
    "name": "Bachmanning"
  },
  {
    "plz": "4673",
    "name": "Gaspoltshofen"
  },
  {
    "plz": "4674",
    "name": "Altenhof am Hausruck"
  },
  {
    "plz": "4675",
    "name": "Weibern"
  },
  {
    "plz": "4676",
    "name": "Aistersheim"
  },
  {
    "plz": "4680",
    "name": "Haag am Hausruck"
  },
  {
    "plz": "4681",
    "name": "Rottenbach"
  },
  {
    "plz": "4682",
    "name": "Geboltskirchen"
  },
  {
    "plz": "4690",
    "name": "Schwanenstadt"
  },
  {
    "plz": "4691",
    "name": "Breitenschützing"
  },
  {
    "plz": "4692",
    "name": "Niederthalheim"
  },
  {
    "plz": "4693",
    "name": "Desselbrunn"
  },
  {
    "plz": "4694",
    "name": "Ohlsdorf"
  },
  {
    "plz": "4701",
    "name": "Bad Schallerbach"
  },
  {
    "plz": "4702",
    "name": "Wallern an der Trattnach"
  },
  {
    "plz": "4707",
    "name": "Schlüßlberg"
  },
  {
    "plz": "4710",
    "name": "Grieskirchen"
  },
  {
    "plz": "4712",
    "name": "Michaelnbach"
  },
  {
    "plz": "4713",
    "name": "Gallspach"
  },
  {
    "plz": "4714",
    "name": "Meggenhofen"
  },
  {
    "plz": "4715",
    "name": "Taufkirchen an der Trattnach"
  },
  {
    "plz": "4716",
    "name": "Hofkirchen an der Trattnach"
  },
  {
    "plz": "4720",
    "name": "Neumarkt im Hausruckkreis"
  },
  {
    "plz": "4721",
    "name": "Altschwendt"
  },
  {
    "plz": "4722",
    "name": "Peuerbach"
  },
  {
    "plz": "4723",
    "name": "Natternbach"
  },
  {
    "plz": "4724",
    "name": "Neukirchen am Walde"
  },
  {
    "plz": "4725",
    "name": "St. Aegidi"
  },
  {
    "plz": "4730",
    "name": "Waizenkirchen"
  },
  {
    "plz": "4731",
    "name": "Prambachkirchen"
  },
  {
    "plz": "4732",
    "name": "St. Thomas"
  },
  {
    "plz": "4733",
    "name": "Heiligenberg"
  },
  {
    "plz": "4741",
    "name": "Wendling"
  },
  {
    "plz": "4742",
    "name": "Pram"
  },
  {
    "plz": "4743",
    "name": "Peterskirchen"
  },
  {
    "plz": "4751",
    "name": "Dorf"
  },
  {
    "plz": "4752",
    "name": "Riedau"
  },
  {
    "plz": "4753",
    "name": "Taiskirchen im Innkreis"
  },
  {
    "plz": "4754",
    "name": "Andrichsfurt"
  },
  {
    "plz": "4755",
    "name": "Zell an der Pram"
  },
  {
    "plz": "4760",
    "name": "Raab"
  },
  {
    "plz": "4761",
    "name": "Enzenkirchen"
  },
  {
    "plz": "4762",
    "name": "St. Willibald"
  },
  {
    "plz": "4770",
    "name": "Andorf"
  },
  {
    "plz": "4771",
    "name": "Sigharting"
  },
  {
    "plz": "4772",
    "name": "Lambrechten"
  },
  {
    "plz": "4773",
    "name": "Eggerding"
  },
  {
    "plz": "4774",
    "name": "St. Marienkirchen bei Schärding"
  },
  {
    "plz": "4775",
    "name": "Taufkirchen an der Pram"
  },
  {
    "plz": "4776",
    "name": "Diersbach"
  },
  {
    "plz": "4777",
    "name": "Mayrhof"
  },
  {
    "plz": "4780",
    "name": "Schärding"
  },
  {
    "plz": "4782",
    "name": "St. Florian am Inn"
  },
  {
    "plz": "4783",
    "name": "Wernstein am Inn"
  },
  {
    "plz": "4784",
    "name": "Schardenberg"
  },
  {
    "plz": "4785",
    "name": "Freinberg"
  },
  {
    "plz": "4786",
    "name": "Brunnenthal"
  },
  {
    "plz": "4791",
    "name": "Rainbach im Innkreis"
  },
  {
    "plz": "4792",
    "name": "Münzkirchen"
  },
  {
    "plz": "4793",
    "name": "St. Roman"
  },
  {
    "plz": "4794",
    "name": "Kopfing im Innkreis"
  },
  {
    "plz": "4800",
    "name": "Attnang-Puchheim"
  },
  {
    "plz": "4801",
    "name": "Traunkirchen"
  },
  {
    "plz": "4802",
    "name": "Ebensee"
  },
  {
    "plz": "4810",
    "name": "Gmunden"
  },
  {
    "plz": "4812",
    "name": "Pinsdorf"
  },
  {
    "plz": "4813",
    "name": "Altmünster"
  },
  {
    "plz": "4814",
    "name": "Neukirchen"
  },
  {
    "plz": "4816",
    "name": "Gschwandt"
  },
  {
    "plz": "4817",
    "name": "St. Konrad"
  },
  {
    "plz": "4820",
    "name": "Bad Ischl"
  },
  {
    "plz": "4821",
    "name": "Lauffen"
  },
  {
    "plz": "4822",
    "name": "Bad Goisern am Hallstättersee"
  },
  {
    "plz": "4823",
    "name": "Steeg"
  },
  {
    "plz": "4824",
    "name": "Gosau"
  },
  {
    "plz": "4825",
    "name": "Gosau-Hintertal"
  },
  {
    "plz": "4829",
    "name": "Bad Ischl"
  },
  {
    "plz": "4830",
    "name": "Hallstatt"
  },
  {
    "plz": "4831",
    "name": "Obertraun"
  },
  {
    "plz": "4840",
    "name": "Vöcklabruck"
  },
  {
    "plz": "4841",
    "name": "Ungenach"
  },
  {
    "plz": "4842",
    "name": "Zell am Pettenfirst"
  },
  {
    "plz": "4843",
    "name": "Ampflwang"
  },
  {
    "plz": "4844",
    "name": "Regau"
  },
  {
    "plz": "4845",
    "name": "Rutzenmoos"
  },
  {
    "plz": "4846",
    "name": "Redlham"
  },
  {
    "plz": "4847",
    "name": "Vöcklabruck"
  },
  {
    "plz": "4849",
    "name": "Puchkirchen am Trattberg"
  },
  {
    "plz": "4850",
    "name": "Timelkam"
  },
  {
    "plz": "4851",
    "name": "Gampern"
  },
  {
    "plz": "4852",
    "name": "Weyregg am Attersee"
  },
  {
    "plz": "4853",
    "name": "Steinbach am Attersee"
  },
  {
    "plz": "4854",
    "name": "Weißenbach"
  },
  {
    "plz": "4860",
    "name": "Lenzing"
  },
  {
    "plz": "4861",
    "name": "Schörfling"
  },
  {
    "plz": "4863",
    "name": "Seewalchen am Attersee"
  },
  {
    "plz": "4864",
    "name": "Attersee"
  },
  {
    "plz": "4865",
    "name": "Nußdorf am Attersee"
  },
  {
    "plz": "4866",
    "name": "Unterach"
  },
  {
    "plz": "4870",
    "name": "Vöcklamarkt"
  },
  {
    "plz": "4871",
    "name": "Zipf"
  },
  {
    "plz": "4872",
    "name": "Neukirchen an der Vöckla"
  },
  {
    "plz": "4873",
    "name": "Frankenburg am Hausruck"
  },
  {
    "plz": "4874",
    "name": "Pramet"
  },
  {
    "plz": "4875",
    "name": "Redleiten"
  },
  {
    "plz": "4880",
    "name": "St. Georgen im Attergau"
  },
  {
    "plz": "4881",
    "name": "Straß im Attergau"
  },
  {
    "plz": "4882",
    "name": "Oberwang"
  },
  {
    "plz": "4890",
    "name": "Frankenmarkt"
  },
  {
    "plz": "4891",
    "name": "Pöndorf"
  },
  {
    "plz": "4892",
    "name": "Fornach"
  },
  {
    "plz": "4893",
    "name": "Zell am Moos"
  },
  {
    "plz": "4894",
    "name": "Oberhofen am Irrsee"
  },
  {
    "plz": "4901",
    "name": "Ottnang"
  },
  {
    "plz": "4902",
    "name": "Wolfsegg am Hausruck"
  },
  {
    "plz": "4903",
    "name": "Manning"
  },
  {
    "plz": "4904",
    "name": "Atzbach"
  },
  {
    "plz": "4905",
    "name": "Thomasroith"
  },
  {
    "plz": "4906",
    "name": "Eberschwang"
  },
  {
    "plz": "4910",
    "name": "Ried im Innkreis"
  },
  {
    "plz": "4911",
    "name": "Tumeltsham"
  },
  {
    "plz": "4912",
    "name": "Neuhofen im Innkreis"
  },
  {
    "plz": "4920",
    "name": "Schildorn"
  },
  {
    "plz": "4921",
    "name": "Hohenzell"
  },
  {
    "plz": "4922",
    "name": "Geiersberg"
  },
  {
    "plz": "4923",
    "name": "Lohnsburg"
  },
  {
    "plz": "4924",
    "name": "Waldzell"
  },
  {
    "plz": "4925",
    "name": "Pramet"
  },
  {
    "plz": "4926",
    "name": "St. Marienkirchen am Hausruck"
  },
  {
    "plz": "4931",
    "name": "Mettmach"
  },
  {
    "plz": "4932",
    "name": "Kirchheim im Innkreis"
  },
  {
    "plz": "4933",
    "name": "Wildenau"
  },
  {
    "plz": "4941",
    "name": "Mehrnbach"
  },
  {
    "plz": "4942",
    "name": "Gurten"
  },
  {
    "plz": "4943",
    "name": "Geinberg"
  },
  {
    "plz": "4950",
    "name": "Altheim"
  },
  {
    "plz": "4951",
    "name": "Polling im Innkreis"
  },
  {
    "plz": "4952",
    "name": "Weng im Innkreis"
  },
  {
    "plz": "4961",
    "name": "Mühlheim am Inn"
  },
  {
    "plz": "4962",
    "name": "Mining"
  },
  {
    "plz": "4963",
    "name": "St. Peter am Hart"
  },
  {
    "plz": "4970",
    "name": "Eitzing"
  },
  {
    "plz": "4971",
    "name": "Aurolzmünster"
  },
  {
    "plz": "4972",
    "name": "Utzenaich"
  },
  {
    "plz": "4973",
    "name": "St. Martin"
  },
  {
    "plz": "4974",
    "name": "Ort im Innkreis"
  },
  {
    "plz": "4975",
    "name": "Suben"
  },
  {
    "plz": "4980",
    "name": "Antiesenhofen"
  },
  {
    "plz": "4981",
    "name": "Reichersberg"
  },
  {
    "plz": "4982",
    "name": "Obernberg am Inn"
  },
  {
    "plz": "4983",
    "name": "St. Georgen bei Obernberg am Inn"
  },
  {
    "plz": "4984",
    "name": "Weilbach"
  },
  {
    "plz": "4985",
    "name": "Katzenberg"
  },
  {
    "plz": "5000",
    "name": "Wals bei Salzburg"
  },
  {
    "plz": "5010",
    "name": "Salzburg"
  },
  {
    "plz": "5013",
    "name": "Salzburg-Liefering"
  },
  {
    "plz": "5014",
    "name": "Salzburg"
  },
  {
    "plz": "5015",
    "name": "Salzburg"
  },
  {
    "plz": "5016",
    "name": "Salzburg"
  },
  {
    "plz": "5017",
    "name": "Salzburg"
  },
  {
    "plz": "5018",
    "name": "Salzburg-Europark"
  },
  {
    "plz": "5020",
    "name": "Salzburg"
  },
  {
    "plz": "5021",
    "name": "Salzburg Postfach"
  },
  {
    "plz": "5023",
    "name": "Salzburg-Gnigl"
  },
  {
    "plz": "5025",
    "name": "Salzburg-Parsch"
  },
  {
    "plz": "5026",
    "name": "Salzburg-Aigen"
  },
  {
    "plz": "5027",
    "name": "Salzburg"
  },
  {
    "plz": "5033",
    "name": "Salzburg"
  },
  {
    "plz": "5061",
    "name": "Elsbethen-Glasenbach"
  },
  {
    "plz": "5071",
    "name": "Wals"
  },
  {
    "plz": "5072",
    "name": "Siezenheim"
  },
  {
    "plz": "5081",
    "name": "Anif"
  },
  {
    "plz": "5082",
    "name": "Grödig"
  },
  {
    "plz": "5083",
    "name": "Gartenau-St. Leonhard"
  },
  {
    "plz": "5084",
    "name": "Großgmain"
  },
  {
    "plz": "5089",
    "name": "Niederalm"
  },
  {
    "plz": "5090",
    "name": "Lofer"
  },
  {
    "plz": "5091",
    "name": "Unken"
  },
  {
    "plz": "5092",
    "name": "St. Martin bei Lofer"
  },
  {
    "plz": "5093",
    "name": "Weißbach bei Lofer"
  },
  {
    "plz": "5101",
    "name": "Bergheim"
  },
  {
    "plz": "5102",
    "name": "Anthering"
  },
  {
    "plz": "5110",
    "name": "Oberndorf bei Salzburg"
  },
  {
    "plz": "5111",
    "name": "Bürmoos"
  },
  {
    "plz": "5112",
    "name": "Lamprechtshausen"
  },
  {
    "plz": "5113",
    "name": "St. Georgen bei Salzburg"
  },
  {
    "plz": "5114",
    "name": "Göming"
  },
  {
    "plz": "5120",
    "name": "St. Pantaleon"
  },
  {
    "plz": "5121",
    "name": "Ostermiething"
  },
  {
    "plz": "5122",
    "name": "Ach"
  },
  {
    "plz": "5123",
    "name": "Überackern"
  },
  {
    "plz": "5124",
    "name": "Haigermoos"
  },
  {
    "plz": "5131",
    "name": "Franking"
  },
  {
    "plz": "5132",
    "name": "Geretsberg"
  },
  {
    "plz": "5133",
    "name": "Gilgenberg am Weilhart"
  },
  {
    "plz": "5134",
    "name": "Schwand im Innkreis"
  },
  {
    "plz": "5141",
    "name": "Moosdorf"
  },
  {
    "plz": "5142",
    "name": "Eggelsberg"
  },
  {
    "plz": "5143",
    "name": "Feldkirchen bei Mattighofen"
  },
  {
    "plz": "5144",
    "name": "Handenberg"
  },
  {
    "plz": "5145",
    "name": "Neukirchen an der Enknach"
  },
  {
    "plz": "5151",
    "name": "Nußdorf am Haunsberg"
  },
  {
    "plz": "5152",
    "name": "Michaelbeuern"
  },
  {
    "plz": "5161",
    "name": "Elixhausen"
  },
  {
    "plz": "5162",
    "name": "Obertrum am See"
  },
  {
    "plz": "5163",
    "name": "Mattsee"
  },
  {
    "plz": "5164",
    "name": "Seeham"
  },
  {
    "plz": "5165",
    "name": "Berndorf bei Salzburg"
  },
  {
    "plz": "5166",
    "name": "Perwang am Grabensee"
  },
  {
    "plz": "5201",
    "name": "Seekirchen"
  },
  {
    "plz": "5202",
    "name": "Neumarkt am Wallersee"
  },
  {
    "plz": "5203",
    "name": "Köstendorf"
  },
  {
    "plz": "5204",
    "name": "Straßwalchen"
  },
  {
    "plz": "5205",
    "name": "Schleedorf"
  },
  {
    "plz": "5211",
    "name": "Friedburg"
  },
  {
    "plz": "5212",
    "name": "Schneegattern"
  },
  {
    "plz": "5221",
    "name": "Lochen am See"
  },
  {
    "plz": "5222",
    "name": "Munderfing"
  },
  {
    "plz": "5223",
    "name": "Pfaffstätt"
  },
  {
    "plz": "5224",
    "name": "Auerbach"
  },
  {
    "plz": "5225",
    "name": "Jeging"
  },
  {
    "plz": "5230",
    "name": "Mattighofen"
  },
  {
    "plz": "5231",
    "name": "Schalchen"
  },
  {
    "plz": "5232",
    "name": "Kirchberg bei Mattighofen"
  },
  {
    "plz": "5233",
    "name": "Pischelsdorf am Engelbach"
  },
  {
    "plz": "5241",
    "name": "Maria Schmolln"
  },
  {
    "plz": "5242",
    "name": "St. Johann am Walde"
  },
  {
    "plz": "5251",
    "name": "Höhnhart"
  },
  {
    "plz": "5252",
    "name": "Aspach"
  },
  {
    "plz": "5261",
    "name": "Uttendorf"
  },
  {
    "plz": "5270",
    "name": "Mauerkirchen"
  },
  {
    "plz": "5271",
    "name": "Moosbach"
  },
  {
    "plz": "5272",
    "name": "Treubach"
  },
  {
    "plz": "5273",
    "name": "Roßbach"
  },
  {
    "plz": "5274",
    "name": "Burgkirchen"
  },
  {
    "plz": "5280",
    "name": "Braunau am Inn"
  },
  {
    "plz": "5282",
    "name": "Braunau"
  },
  {
    "plz": "5283",
    "name": "Braunau am Inn"
  },
  {
    "plz": "5300",
    "name": "Hallwang"
  },
  {
    "plz": "5301",
    "name": "Eugendorf"
  },
  {
    "plz": "5302",
    "name": "Henndorf am Wallersee"
  },
  {
    "plz": "5303",
    "name": "Thalgau"
  },
  {
    "plz": "5310",
    "name": "Mondsee"
  },
  {
    "plz": "5311",
    "name": "Loibichl"
  },
  {
    "plz": "5321",
    "name": "Koppl"
  },
  {
    "plz": "5322",
    "name": "Hof bei Salzburg"
  },
  {
    "plz": "5323",
    "name": "Ebenau"
  },
  {
    "plz": "5324",
    "name": "Faistenau"
  },
  {
    "plz": "5325",
    "name": "Plainfeld"
  },
  {
    "plz": "5330",
    "name": "Fuschl am See"
  },
  {
    "plz": "5340",
    "name": "St. Gilgen"
  },
  {
    "plz": "5342",
    "name": "Abersee"
  },
  {
    "plz": "5350",
    "name": "Strobl"
  },
  {
    "plz": "5351",
    "name": "Aigen-Voglhub"
  },
  {
    "plz": "5360",
    "name": "St. Wolfgang im Salzkammergut"
  },
  {
    "plz": "5400",
    "name": "Hallein"
  },
  {
    "plz": "5411",
    "name": "Oberalm"
  },
  {
    "plz": "5412",
    "name": "Puch bei Hallein"
  },
  {
    "plz": "5421",
    "name": "Adnet"
  },
  {
    "plz": "5422",
    "name": "Heilbad Dürrnberg"
  },
  {
    "plz": "5423",
    "name": "St. Koloman"
  },
  {
    "plz": "5424",
    "name": "Bad Vigaun"
  },
  {
    "plz": "5425",
    "name": "Krispl"
  },
  {
    "plz": "5431",
    "name": "Kuchl"
  },
  {
    "plz": "5440",
    "name": "Golling an der Salzach"
  },
  {
    "plz": "5441",
    "name": "Abtenau"
  },
  {
    "plz": "5442",
    "name": "Rußbach am Paß Gschütt"
  },
  {
    "plz": "5450",
    "name": "Werfen"
  },
  {
    "plz": "5451",
    "name": "Tenneck"
  },
  {
    "plz": "5452",
    "name": "Pfarrwerfen"
  },
  {
    "plz": "5453",
    "name": "Werfenweng"
  },
  {
    "plz": "5500",
    "name": "Bischofshofen"
  },
  {
    "plz": "5505",
    "name": "Mühlbach am Hochkönig"
  },
  {
    "plz": "5511",
    "name": "Hüttau"
  },
  {
    "plz": "5521",
    "name": "Niedernfritz"
  },
  {
    "plz": "5522",
    "name": "St. Martin am Tennengebirge"
  },
  {
    "plz": "5523",
    "name": "Lungötz"
  },
  {
    "plz": "5524",
    "name": "Annaberg"
  },
  {
    "plz": "5531",
    "name": "Eben im Pongau"
  },
  {
    "plz": "5532",
    "name": "Filzmoos"
  },
  {
    "plz": "5541",
    "name": "Altenmarkt im Pongau"
  },
  {
    "plz": "5542",
    "name": "Flachau"
  },
  {
    "plz": "5550",
    "name": "Radstadt"
  },
  {
    "plz": "5552",
    "name": "Forstau"
  },
  {
    "plz": "5561",
    "name": "Untertauern"
  },
  {
    "plz": "5562",
    "name": "Obertauern"
  },
  {
    "plz": "5563",
    "name": "Tweng"
  },
  {
    "plz": "5570",
    "name": "Mauterndorf"
  },
  {
    "plz": "5571",
    "name": "Mariapfarr"
  },
  {
    "plz": "5572",
    "name": "St. Andrä im Lungau"
  },
  {
    "plz": "5573",
    "name": "Weißpriach"
  },
  {
    "plz": "5574",
    "name": "Göriach"
  },
  {
    "plz": "5575",
    "name": "Lessach"
  },
  {
    "plz": "5580",
    "name": "Tamsweg"
  },
  {
    "plz": "5581",
    "name": "St. Margarethen im Lungau"
  },
  {
    "plz": "5582",
    "name": "St. Michael im Lungau"
  },
  {
    "plz": "5583",
    "name": "Muhr"
  },
  {
    "plz": "5584",
    "name": "Zederhaus"
  },
  {
    "plz": "5585",
    "name": "Unternberg"
  },
  {
    "plz": "5591",
    "name": "Ramingstein"
  },
  {
    "plz": "5592",
    "name": "Thomatal"
  },
  {
    "plz": "5600",
    "name": "St. Johann im Pongau"
  },
  {
    "plz": "5602",
    "name": "Wagrain"
  },
  {
    "plz": "5603",
    "name": "Kleinarl"
  },
  {
    "plz": "5611",
    "name": "Großarl"
  },
  {
    "plz": "5612",
    "name": "Hüttschlag"
  },
  {
    "plz": "5620",
    "name": "Schwarzach im Pongau"
  },
  {
    "plz": "5621",
    "name": "St. Veit im Pongau"
  },
  {
    "plz": "5622",
    "name": "Goldegg"
  },
  {
    "plz": "5623",
    "name": "Schwarzach im Pongau"
  },
  {
    "plz": "5630",
    "name": "Bad Hofgastein"
  },
  {
    "plz": "5632",
    "name": "Dorfgastein"
  },
  {
    "plz": "5640",
    "name": "Bad Gastein"
  },
  {
    "plz": "5645",
    "name": "Böckstein"
  },
  {
    "plz": "5651",
    "name": "Lend"
  },
  {
    "plz": "5652",
    "name": "Dienten am Hochkönig"
  },
  {
    "plz": "5660",
    "name": "Taxenbach"
  },
  {
    "plz": "5661",
    "name": "Rauris"
  },
  {
    "plz": "5662",
    "name": "Gries"
  },
  {
    "plz": "5671",
    "name": "Bruck an der Großglocknerstraße"
  },
  {
    "plz": "5672",
    "name": "Fusch an der Glocknerstraße"
  },
  {
    "plz": "5700",
    "name": "Zell am See"
  },
  {
    "plz": "5710",
    "name": "Kaprun"
  },
  {
    "plz": "5721",
    "name": "Piesendorf"
  },
  {
    "plz": "5722",
    "name": "Niedernsill"
  },
  {
    "plz": "5723",
    "name": "Uttendorf"
  },
  {
    "plz": "5724",
    "name": "Stuhlfelden"
  },
  {
    "plz": "5730",
    "name": "Mittersill"
  },
  {
    "plz": "5731",
    "name": "Hollersbach im Pinzgau"
  },
  {
    "plz": "5732",
    "name": "Mühlbach"
  },
  {
    "plz": "5733",
    "name": "Bramberg am Wildkogel"
  },
  {
    "plz": "5741",
    "name": "Neukirchen am Großvenediger"
  },
  {
    "plz": "5742",
    "name": "Wald im Pinzgau"
  },
  {
    "plz": "5743",
    "name": "Krimml"
  },
  {
    "plz": "5751",
    "name": "Maishofen"
  },
  {
    "plz": "5752",
    "name": "Viehhofen"
  },
  {
    "plz": "5753",
    "name": "Saalbach"
  },
  {
    "plz": "5754",
    "name": "Hinterglemm"
  },
  {
    "plz": "5760",
    "name": "Saalfelden am Steinernen Meer"
  },
  {
    "plz": "5761",
    "name": "Maria Alm am Steinernen Meer"
  },
  {
    "plz": "5771",
    "name": "Leogang"
  },
  {
    "plz": "6000",
    "name": "Hall in Tirol"
  },
  {
    "plz": "6010",
    "name": "Innsbruck"
  },
  {
    "plz": "6013",
    "name": "Innsbruck"
  },
  {
    "plz": "6019",
    "name": "Innsbruck"
  },
  {
    "plz": "6020",
    "name": "Innsbruck"
  },
  {
    "plz": "6021",
    "name": "Innsbruck Postfach"
  },
  {
    "plz": "6022",
    "name": "Innsbruck"
  },
  {
    "plz": "6023",
    "name": "Innsbruck"
  },
  {
    "plz": "6024",
    "name": "Innsbruck"
  },
  {
    "plz": "6026",
    "name": "Innsbruck"
  },
  {
    "plz": "6028",
    "name": "Innsbruck"
  },
  {
    "plz": "6029",
    "name": "Innsbruck"
  },
  {
    "plz": "6033",
    "name": "Innsbruck-Arzl"
  },
  {
    "plz": "6050",
    "name": "Hall in Tirol"
  },
  {
    "plz": "6060",
    "name": "Hall in Tirol"
  },
  {
    "plz": "6063",
    "name": "Rum"
  },
  {
    "plz": "6065",
    "name": "Thaur"
  },
  {
    "plz": "6067",
    "name": "Absam"
  },
  {
    "plz": "6068",
    "name": "Mils"
  },
  {
    "plz": "6069",
    "name": "Gnadenwald"
  },
  {
    "plz": "6070",
    "name": "Ampass"
  },
  {
    "plz": "6071",
    "name": "Aldrans"
  },
  {
    "plz": "6072",
    "name": "Lans"
  },
  {
    "plz": "6073",
    "name": "Sistrans"
  },
  {
    "plz": "6074",
    "name": "Rinn"
  },
  {
    "plz": "6075",
    "name": "Tulfes"
  },
  {
    "plz": "6080",
    "name": "Innsbruck-Igls"
  },
  {
    "plz": "6082",
    "name": "Patsch"
  },
  {
    "plz": "6083",
    "name": "Ellbögen"
  },
  {
    "plz": "6091",
    "name": "Götzens"
  },
  {
    "plz": "6092",
    "name": "Birgitz"
  },
  {
    "plz": "6094",
    "name": "Axams"
  },
  {
    "plz": "6095",
    "name": "Grinzens"
  },
  {
    "plz": "6100",
    "name": "Seefeld in Tirol"
  },
  {
    "plz": "6103",
    "name": "Reith bei Seefeld"
  },
  {
    "plz": "6105",
    "name": "Leutasch"
  },
  {
    "plz": "6108",
    "name": "Scharnitz"
  },
  {
    "plz": "6111",
    "name": "Volders"
  },
  {
    "plz": "6112",
    "name": "Wattens"
  },
  {
    "plz": "6113",
    "name": "Wattenberg"
  },
  {
    "plz": "6114",
    "name": "Kolsass"
  },
  {
    "plz": "6115",
    "name": "Kolsassberg"
  },
  {
    "plz": "6116",
    "name": "Weer"
  },
  {
    "plz": "6121",
    "name": "Baumkirchen"
  },
  {
    "plz": "6122",
    "name": "Fritzens"
  },
  {
    "plz": "6123",
    "name": "Terfens"
  },
  {
    "plz": "6130",
    "name": "Schwaz"
  },
  {
    "plz": "6133",
    "name": "Weerberg"
  },
  {
    "plz": "6134",
    "name": "Vomp"
  },
  {
    "plz": "6135",
    "name": "Stans"
  },
  {
    "plz": "6136",
    "name": "Pill"
  },
  {
    "plz": "6138",
    "name": "Vomp"
  },
  {
    "plz": "6141",
    "name": "Schönberg im Stubaital"
  },
  {
    "plz": "6142",
    "name": "Mieders"
  },
  {
    "plz": "6143",
    "name": "Matrei am Brenner"
  },
  {
    "plz": "6145",
    "name": "Navis"
  },
  {
    "plz": "6150",
    "name": "Steinach am Brenner"
  },
  {
    "plz": "6151",
    "name": "Gschnitz"
  },
  {
    "plz": "6152",
    "name": "Trins"
  },
  {
    "plz": "6154",
    "name": "St. Jodok am Brenner"
  },
  {
    "plz": "6156",
    "name": "Gries am Brenner"
  },
  {
    "plz": "6157",
    "name": "Obernberg am Brenner"
  },
  {
    "plz": "6161",
    "name": "Natters"
  },
  {
    "plz": "6162",
    "name": "Mutters"
  },
  {
    "plz": "6165",
    "name": "Telfes im Stubai"
  },
  {
    "plz": "6166",
    "name": "Fulpmes"
  },
  {
    "plz": "6167",
    "name": "Neustift im Stubaital"
  },
  {
    "plz": "6170",
    "name": "Zirl"
  },
  {
    "plz": "6173",
    "name": "Oberperfuss"
  },
  {
    "plz": "6175",
    "name": "Kematen in Tirol"
  },
  {
    "plz": "6176",
    "name": "Völs"
  },
  {
    "plz": "6178",
    "name": "Unterperfuss"
  },
  {
    "plz": "6179",
    "name": "Ranggen"
  },
  {
    "plz": "6181",
    "name": "Sellrain"
  },
  {
    "plz": "6182",
    "name": "Gries im Sellrain"
  },
  {
    "plz": "6183",
    "name": "Kühtai"
  },
  {
    "plz": "6184",
    "name": "St. Sigmund"
  },
  {
    "plz": "6200",
    "name": "Jenbach"
  },
  {
    "plz": "6210",
    "name": "Wiesing"
  },
  {
    "plz": "6212",
    "name": "Maurach"
  },
  {
    "plz": "6213",
    "name": "Pertisau"
  },
  {
    "plz": "6215",
    "name": "Achenkirch"
  },
  {
    "plz": "6220",
    "name": "Buch in Tirol"
  },
  {
    "plz": "6222",
    "name": "Gallzein"
  },
  {
    "plz": "6230",
    "name": "Brixlegg"
  },
  {
    "plz": "6232",
    "name": "Münster"
  },
  {
    "plz": "6233",
    "name": "Kramsach"
  },
  {
    "plz": "6234",
    "name": "Brandenberg"
  },
  {
    "plz": "6235",
    "name": "Reith im Alpbachtal"
  },
  {
    "plz": "6236",
    "name": "Alpbach"
  },
  {
    "plz": "6240",
    "name": "Rattenberg"
  },
  {
    "plz": "6241",
    "name": "Radfeld"
  },
  {
    "plz": "6250",
    "name": "Kundl"
  },
  {
    "plz": "6252",
    "name": "Breitenbach am Inn"
  },
  {
    "plz": "6260",
    "name": "Bruck am Ziller"
  },
  {
    "plz": "6261",
    "name": "Strass im Zillertal"
  },
  {
    "plz": "6262",
    "name": "Schlitters"
  },
  {
    "plz": "6263",
    "name": "Fügen"
  },
  {
    "plz": "6264",
    "name": "Fügenberg"
  },
  {
    "plz": "6265",
    "name": "Hart im Zillertal"
  },
  {
    "plz": "6271",
    "name": "Uderns"
  },
  {
    "plz": "6272",
    "name": "Kaltenbach"
  },
  {
    "plz": "6273",
    "name": "Ried im Zillertal"
  },
  {
    "plz": "6274",
    "name": "Aschau"
  },
  {
    "plz": "6275",
    "name": "Stumm"
  },
  {
    "plz": "6276",
    "name": "Stummerberg"
  },
  {
    "plz": "6277",
    "name": "Zellberg"
  },
  {
    "plz": "6278",
    "name": "Hainzenberg"
  },
  {
    "plz": "6280",
    "name": "Zell am Ziller"
  },
  {
    "plz": "6281",
    "name": "Gerlos"
  },
  {
    "plz": "6283",
    "name": "Hippach"
  },
  {
    "plz": "6284",
    "name": "Ramsau im Zillertal"
  },
  {
    "plz": "6290",
    "name": "Mayrhofen"
  },
  {
    "plz": "6292",
    "name": "Finkenberg"
  },
  {
    "plz": "6293",
    "name": "Tux"
  },
  {
    "plz": "6294",
    "name": "Hintertux"
  },
  {
    "plz": "6295",
    "name": "Ginzling"
  },
  {
    "plz": "6300",
    "name": "Wörgl"
  },
  {
    "plz": "6305",
    "name": "Itter"
  },
  {
    "plz": "6306",
    "name": "Söll"
  },
  {
    "plz": "6311",
    "name": "Wildschönau-Oberau"
  },
  {
    "plz": "6313",
    "name": "Wildschönau-Auffach"
  },
  {
    "plz": "6314",
    "name": "Wildschönau-Niederau"
  },
  {
    "plz": "6320",
    "name": "Angerberg"
  },
  {
    "plz": "6321",
    "name": "Angath"
  },
  {
    "plz": "6322",
    "name": "Kirchbichl"
  },
  {
    "plz": "6323",
    "name": "Bad Häring"
  },
  {
    "plz": "6324",
    "name": "Mariastein"
  },
  {
    "plz": "6330",
    "name": "Kufstein"
  },
  {
    "plz": "6332",
    "name": "Kufstein"
  },
  {
    "plz": "6334",
    "name": "Schwoich"
  },
  {
    "plz": "6335",
    "name": "Thiersee"
  },
  {
    "plz": "6336",
    "name": "Langkampfen"
  },
  {
    "plz": "6341",
    "name": "Ebbs"
  },
  {
    "plz": "6342",
    "name": "Niederndorf"
  },
  {
    "plz": "6343",
    "name": "Erl"
  },
  {
    "plz": "6344",
    "name": "Walchsee"
  },
  {
    "plz": "6345",
    "name": "Kössen"
  },
  {
    "plz": "6346",
    "name": "Niederndorferberg"
  },
  {
    "plz": "6347",
    "name": "Rettenschöss"
  },
  {
    "plz": "6351",
    "name": "Scheffau am Wilden Kaiser"
  },
  {
    "plz": "6352",
    "name": "Ellmau"
  },
  {
    "plz": "6353",
    "name": "Going am Wilden Kaiser"
  },
  {
    "plz": "6361",
    "name": "Hopfgarten"
  },
  {
    "plz": "6362",
    "name": "Kelchsau"
  },
  {
    "plz": "6363",
    "name": "Westendorf"
  },
  {
    "plz": "6364",
    "name": "Brixen im Thale"
  },
  {
    "plz": "6365",
    "name": "Kirchberg in Tirol"
  },
  {
    "plz": "6370",
    "name": "Kitzbühel"
  },
  {
    "plz": "6371",
    "name": "Aurach"
  },
  {
    "plz": "6372",
    "name": "Oberndorf in Tirol"
  },
  {
    "plz": "6373",
    "name": "Jochberg"
  },
  {
    "plz": "6380",
    "name": "St. Johann in Tirol"
  },
  {
    "plz": "6382",
    "name": "Kirchdorf in Tirol"
  },
  {
    "plz": "6383",
    "name": "Erpfendorf"
  },
  {
    "plz": "6384",
    "name": "Waidring"
  },
  {
    "plz": "6385",
    "name": "Schwendt"
  },
  {
    "plz": "6391",
    "name": "Fieberbrunn"
  },
  {
    "plz": "6392",
    "name": "St. Jakob in Haus"
  },
  {
    "plz": "6393",
    "name": "St. Ulrich am Pillersee"
  },
  {
    "plz": "6395",
    "name": "Hochfilzen"
  },
  {
    "plz": "6401",
    "name": "Inzing"
  },
  {
    "plz": "6402",
    "name": "Hatting"
  },
  {
    "plz": "6403",
    "name": "Flaurling"
  },
  {
    "plz": "6404",
    "name": "Polling"
  },
  {
    "plz": "6405",
    "name": "Pfaffenhofen"
  },
  {
    "plz": "6406",
    "name": "Oberhofen im Inntal"
  },
  {
    "plz": "6408",
    "name": "Pettnau"
  },
  {
    "plz": "6410",
    "name": "Telfs"
  },
  {
    "plz": "6412",
    "name": "Telfs-St. Georgen"
  },
  {
    "plz": "6413",
    "name": "Wildermieming"
  },
  {
    "plz": "6414",
    "name": "Mieming"
  },
  {
    "plz": "6416",
    "name": "Obsteig"
  },
  {
    "plz": "6421",
    "name": "Rietz"
  },
  {
    "plz": "6422",
    "name": "Stams"
  },
  {
    "plz": "6423",
    "name": "Mötz"
  },
  {
    "plz": "6424",
    "name": "Silz"
  },
  {
    "plz": "6425",
    "name": "Haiming"
  },
  {
    "plz": "6426",
    "name": "Roppen"
  },
  {
    "plz": "6430",
    "name": "Ötztal Bahnhof"
  },
  {
    "plz": "6432",
    "name": "Sautens"
  },
  {
    "plz": "6433",
    "name": "Oetz"
  },
  {
    "plz": "6441",
    "name": "Umhausen"
  },
  {
    "plz": "6444",
    "name": "Längenfeld"
  },
  {
    "plz": "6450",
    "name": "Sölden"
  },
  {
    "plz": "6452",
    "name": "Hochsölden"
  },
  {
    "plz": "6456",
    "name": "Obergurgl"
  },
  {
    "plz": "6458",
    "name": "Vent"
  },
  {
    "plz": "6460",
    "name": "Imst"
  },
  {
    "plz": "6462",
    "name": "Karres"
  },
  {
    "plz": "6463",
    "name": "Karrösten"
  },
  {
    "plz": "6464",
    "name": "Tarrenz"
  },
  {
    "plz": "6465",
    "name": "Nassereith"
  },
  {
    "plz": "6471",
    "name": "Arzl im Pitztal"
  },
  {
    "plz": "6473",
    "name": "Wenns"
  },
  {
    "plz": "6474",
    "name": "Jerzens"
  },
  {
    "plz": "6481",
    "name": "St. Leonhard im Pitztal"
  },
  {
    "plz": "6491",
    "name": "Schönwies"
  },
  {
    "plz": "6492",
    "name": "Imsterberg"
  },
  {
    "plz": "6493",
    "name": "Mils"
  },
  {
    "plz": "6500",
    "name": "Landeck"
  },
  {
    "plz": "6511",
    "name": "Zams"
  },
  {
    "plz": "6521",
    "name": "Fließ"
  },
  {
    "plz": "6522",
    "name": "Prutz"
  },
  {
    "plz": "6524",
    "name": "Feichten im Kaunertal"
  },
  {
    "plz": "6525",
    "name": "Faggen"
  },
  {
    "plz": "6526",
    "name": "Kauns"
  },
  {
    "plz": "6527",
    "name": "Kaunerberg"
  },
  {
    "plz": "6528",
    "name": "Fendels"
  },
  {
    "plz": "6531",
    "name": "Ried im Oberinntal"
  },
  {
    "plz": "6532",
    "name": "Ladis"
  },
  {
    "plz": "6533",
    "name": "Fiss"
  },
  {
    "plz": "6534",
    "name": "Serfaus"
  },
  {
    "plz": "6541",
    "name": "Tösens"
  },
  {
    "plz": "6542",
    "name": "Pfunds"
  },
  {
    "plz": "6543",
    "name": "Nauders"
  },
  {
    "plz": "6544",
    "name": "Spiss"
  },
  {
    "plz": "6551",
    "name": "Pians"
  },
  {
    "plz": "6552",
    "name": "Tobadill"
  },
  {
    "plz": "6553",
    "name": "See"
  },
  {
    "plz": "6555",
    "name": "Kappl"
  },
  {
    "plz": "6561",
    "name": "Ischgl"
  },
  {
    "plz": "6562",
    "name": "Mathon"
  },
  {
    "plz": "6563",
    "name": "Galtür"
  },
  {
    "plz": "6571",
    "name": "Strengen"
  },
  {
    "plz": "6572",
    "name": "Flirsch"
  },
  {
    "plz": "6574",
    "name": "Pettneu am Arlberg"
  },
  {
    "plz": "6580",
    "name": "St. Anton am Arlberg"
  },
  {
    "plz": "6591",
    "name": "Grins"
  },
  {
    "plz": "6600",
    "name": "Reutte"
  },
  {
    "plz": "6604",
    "name": "Höfen"
  },
  {
    "plz": "6610",
    "name": "Wängle"
  },
  {
    "plz": "6611",
    "name": "Heiterwang"
  },
  {
    "plz": "6621",
    "name": "Bichlbach"
  },
  {
    "plz": "6622",
    "name": "Berwang"
  },
  {
    "plz": "6623",
    "name": "Namlos"
  },
  {
    "plz": "6631",
    "name": "Lermoos"
  },
  {
    "plz": "6632",
    "name": "Ehrwald"
  },
  {
    "plz": "6633",
    "name": "Biberwier"
  },
  {
    "plz": "6642",
    "name": "Stanzach"
  },
  {
    "plz": "6644",
    "name": "Elmen"
  },
  {
    "plz": "6645",
    "name": "Vorderhornbach"
  },
  {
    "plz": "6646",
    "name": "Hinterhornbach"
  },
  {
    "plz": "6647",
    "name": "Pfafflar"
  },
  {
    "plz": "6650",
    "name": "Gramais"
  },
  {
    "plz": "6651",
    "name": "Häselgehr"
  },
  {
    "plz": "6652",
    "name": "Elbigenalp"
  },
  {
    "plz": "6653",
    "name": "Bach"
  },
  {
    "plz": "6654",
    "name": "Holzgau"
  },
  {
    "plz": "6655",
    "name": "Steeg"
  },
  {
    "plz": "6670",
    "name": "Forchach"
  },
  {
    "plz": "6671",
    "name": "Weißenbach am Lech"
  },
  {
    "plz": "6672",
    "name": "Nesselwängle"
  },
  {
    "plz": "6673",
    "name": "Grän"
  },
  {
    "plz": "6675",
    "name": "Tannheim"
  },
  {
    "plz": "6677",
    "name": "Schattwald"
  },
  {
    "plz": "6682",
    "name": "Vils"
  },
  {
    "plz": "6691",
    "name": "Jungholz"
  },
  {
    "plz": "6700",
    "name": "Bludenz"
  },
  {
    "plz": "6701",
    "name": "Bludenz Postfach"
  },
  {
    "plz": "6706",
    "name": "Bürs"
  },
  {
    "plz": "6707",
    "name": "Bürserberg"
  },
  {
    "plz": "6708",
    "name": "Brand"
  },
  {
    "plz": "6710",
    "name": "Nenzing"
  },
  {
    "plz": "6712",
    "name": "Thüringen"
  },
  {
    "plz": "6713",
    "name": "Ludesch"
  },
  {
    "plz": "6714",
    "name": "Nüziders"
  },
  {
    "plz": "6719",
    "name": "Bludesch"
  },
  {
    "plz": "6721",
    "name": "Thüringerberg"
  },
  {
    "plz": "6722",
    "name": "St. Gerold"
  },
  {
    "plz": "6723",
    "name": "Blons"
  },
  {
    "plz": "6731",
    "name": "Sonntag"
  },
  {
    "plz": "6733",
    "name": "Fontanella"
  },
  {
    "plz": "6741",
    "name": "Raggal"
  },
  {
    "plz": "6751",
    "name": "Braz"
  },
  {
    "plz": "6752",
    "name": "Dalaas"
  },
  {
    "plz": "6754",
    "name": "Klösterle"
  },
  {
    "plz": "6762",
    "name": "Stuben"
  },
  {
    "plz": "6763",
    "name": "Zürs"
  },
  {
    "plz": "6764",
    "name": "Lech"
  },
  {
    "plz": "6767",
    "name": "Warth"
  },
  {
    "plz": "6771",
    "name": "St. Anton im Montafon"
  },
  {
    "plz": "6773",
    "name": "Vandans"
  },
  {
    "plz": "6774",
    "name": "Tschagguns"
  },
  {
    "plz": "6780",
    "name": "Schruns"
  },
  {
    "plz": "6781",
    "name": "Bartholomäberg"
  },
  {
    "plz": "6782",
    "name": "Silbertal"
  },
  {
    "plz": "6787",
    "name": "Gargellen"
  },
  {
    "plz": "6791",
    "name": "St. Gallenkirch"
  },
  {
    "plz": "6793",
    "name": "Gaschurn"
  },
  {
    "plz": "6794",
    "name": "Partenen"
  },
  {
    "plz": "6800",
    "name": "Feldkirch"
  },
  {
    "plz": "6801",
    "name": "Feldkirch Postfach"
  },
  {
    "plz": "6803",
    "name": "Feldkirch"
  },
  {
    "plz": "6805",
    "name": "Feldkirch-Gisingen"
  },
  {
    "plz": "6808",
    "name": "Feldkirch-Nofels"
  },
  {
    "plz": "6811",
    "name": "Göfis"
  },
  {
    "plz": "6812",
    "name": "Meiningen"
  },
  {
    "plz": "6820",
    "name": "Frastanz"
  },
  {
    "plz": "6822",
    "name": "Satteins"
  },
  {
    "plz": "6824",
    "name": "Schlins"
  },
  {
    "plz": "6830",
    "name": "Rankweil"
  },
  {
    "plz": "6832",
    "name": "Sulz-Röthis"
  },
  {
    "plz": "6833",
    "name": "Klaus-Weiler"
  },
  {
    "plz": "6834",
    "name": "Übersaxen"
  },
  {
    "plz": "6835",
    "name": "Zwischenwasser"
  },
  {
    "plz": "6836",
    "name": "Viktorsberg"
  },
  {
    "plz": "6837",
    "name": "Weiler"
  },
  {
    "plz": "6840",
    "name": "Götzis"
  },
  {
    "plz": "6841",
    "name": "Mäder"
  },
  {
    "plz": "6842",
    "name": "Koblach"
  },
  {
    "plz": "6844",
    "name": "Altach"
  },
  {
    "plz": "6845",
    "name": "Hohenems"
  },
  {
    "plz": "6850",
    "name": "Dornbirn"
  },
  {
    "plz": "6851",
    "name": "Dornbirn Postfach"
  },
  {
    "plz": "6854",
    "name": "Dornbirn-Messepark"
  },
  {
    "plz": "6855",
    "name": "Dornbirn"
  },
  {
    "plz": "6857",
    "name": "Dornbirn-Haselstauden"
  },
  {
    "plz": "6858",
    "name": "Schwarzach"
  },
  {
    "plz": "6861",
    "name": "Alberschwende"
  },
  {
    "plz": "6863",
    "name": "Egg"
  },
  {
    "plz": "6866",
    "name": "Andelsbuch"
  },
  {
    "plz": "6867",
    "name": "Schwarzenberg"
  },
  {
    "plz": "6870",
    "name": "Bezau"
  },
  {
    "plz": "6874",
    "name": "Bizau"
  },
  {
    "plz": "6881",
    "name": "Mellau"
  },
  {
    "plz": "6882",
    "name": "Schnepfau"
  },
  {
    "plz": "6883",
    "name": "Au"
  },
  {
    "plz": "6884",
    "name": "Damüls"
  },
  {
    "plz": "6886",
    "name": "Schoppernau"
  },
  {
    "plz": "6888",
    "name": "Schröcken"
  },
  {
    "plz": "6890",
    "name": "Lustenau"
  },
  {
    "plz": "6900",
    "name": "Bregenz"
  },
  {
    "plz": "6901",
    "name": "Bregenz Postfach"
  },
  {
    "plz": "6904",
    "name": "Bregenz"
  },
  {
    "plz": "6911",
    "name": "Lochau"
  },
  {
    "plz": "6912",
    "name": "Hörbranz"
  },
  {
    "plz": "6914",
    "name": "Hohenweiler"
  },
  {
    "plz": "6921",
    "name": "Kennelbach"
  },
  {
    "plz": "6922",
    "name": "Wolfurt"
  },
  {
    "plz": "6923",
    "name": "Lauterach"
  },
  {
    "plz": "6932",
    "name": "Langen bei Bregenz"
  },
  {
    "plz": "6933",
    "name": "Doren"
  },
  {
    "plz": "6934",
    "name": "Sulzberg"
  },
  {
    "plz": "6941",
    "name": "Langenegg"
  },
  {
    "plz": "6942",
    "name": "Krumbach"
  },
  {
    "plz": "6943",
    "name": "Riefensberg"
  },
  {
    "plz": "6951",
    "name": "Lingenau"
  },
  {
    "plz": "6952",
    "name": "Hittisau"
  },
  {
    "plz": "6953",
    "name": "Sibratsgfäll"
  },
  {
    "plz": "6960",
    "name": "Wolfurt-Bahnhof"
  },
  {
    "plz": "6961",
    "name": "Wolfurt-Bahnhof Postfach"
  },
  {
    "plz": "6971",
    "name": "Hard"
  },
  {
    "plz": "6972",
    "name": "Fußach"
  },
  {
    "plz": "6973",
    "name": "Höchst"
  },
  {
    "plz": "6974",
    "name": "Gaißau"
  },
  {
    "plz": "6991",
    "name": "Riezlern"
  },
  {
    "plz": "6992",
    "name": "Hirschegg"
  },
  {
    "plz": "6993",
    "name": "Mittelberg"
  },
  {
    "plz": "7000",
    "name": "Eisenstadt"
  },
  {
    "plz": "7001",
    "name": "Eisenstadt Postfach"
  },
  {
    "plz": "7002",
    "name": "Eisenstadt"
  },
  {
    "plz": "7011",
    "name": "Siegendorf"
  },
  {
    "plz": "7012",
    "name": "Zagersdorf"
  },
  {
    "plz": "7013",
    "name": "Klingenbach"
  },
  {
    "plz": "7020",
    "name": "Loipersbach im Burgenland"
  },
  {
    "plz": "7021",
    "name": "Draßburg"
  },
  {
    "plz": "7022",
    "name": "Schattendorf"
  },
  {
    "plz": "7023",
    "name": "Zemendorf"
  },
  {
    "plz": "7024",
    "name": "Hirm"
  },
  {
    "plz": "7025",
    "name": "Pöttelsdorf"
  },
  {
    "plz": "7031",
    "name": "Krensdorf"
  },
  {
    "plz": "7032",
    "name": "Sigleß"
  },
  {
    "plz": "7033",
    "name": "Pöttsching"
  },
  {
    "plz": "7034",
    "name": "Zillingtal"
  },
  {
    "plz": "7035",
    "name": "Steinbrunn"
  },
  {
    "plz": "7041",
    "name": "Wulkaprodersdorf"
  },
  {
    "plz": "7042",
    "name": "Antau"
  },
  {
    "plz": "7051",
    "name": "Großhöflein"
  },
  {
    "plz": "7052",
    "name": "Müllendorf"
  },
  {
    "plz": "7053",
    "name": "Hornstein"
  },
  {
    "plz": "7061",
    "name": "Trausdorf an der Wulka"
  },
  {
    "plz": "7062",
    "name": "St. Margarethen im Burgenland"
  },
  {
    "plz": "7063",
    "name": "Oggau"
  },
  {
    "plz": "7064",
    "name": "Oslip"
  },
  {
    "plz": "7071",
    "name": "Rust"
  },
  {
    "plz": "7072",
    "name": "Mörbisch am See"
  },
  {
    "plz": "7081",
    "name": "Schützen am Gebirge"
  },
  {
    "plz": "7082",
    "name": "Donnerskirchen"
  },
  {
    "plz": "7083",
    "name": "Purbach am Neusiedler See"
  },
  {
    "plz": "7091",
    "name": "Breitenbrunn am Neusiedler See"
  },
  {
    "plz": "7092",
    "name": "Winden am See"
  },
  {
    "plz": "7093",
    "name": "Jois"
  },
  {
    "plz": "7100",
    "name": "Neusiedl am See"
  },
  {
    "plz": "7101",
    "name": "Neusiedl am See"
  },
  {
    "plz": "7111",
    "name": "Parndorf"
  },
  {
    "plz": "7121",
    "name": "Weiden am See"
  },
  {
    "plz": "7122",
    "name": "Gols"
  },
  {
    "plz": "7123",
    "name": "Mönchhof"
  },
  {
    "plz": "7131",
    "name": "Halbturn"
  },
  {
    "plz": "7132",
    "name": "Frauenkirchen"
  },
  {
    "plz": "7141",
    "name": "Podersdorf am See"
  },
  {
    "plz": "7142",
    "name": "Illmitz"
  },
  {
    "plz": "7143",
    "name": "Apetlon"
  },
  {
    "plz": "7151",
    "name": "Wallern im Burgenland"
  },
  {
    "plz": "7152",
    "name": "Pamhagen"
  },
  {
    "plz": "7161",
    "name": "St. Andrä am Zicksee"
  },
  {
    "plz": "7162",
    "name": "Tadten"
  },
  {
    "plz": "7163",
    "name": "Andau"
  },
  {
    "plz": "7201",
    "name": "Neudörfl"
  },
  {
    "plz": "7202",
    "name": "Bad Sauerbrunn"
  },
  {
    "plz": "7203",
    "name": "Wiesen"
  },
  {
    "plz": "7210",
    "name": "Mattersburg"
  },
  {
    "plz": "7212",
    "name": "Forchtenstein"
  },
  {
    "plz": "7221",
    "name": "Marz"
  },
  {
    "plz": "7222",
    "name": "Rohrbach bei Mattersburg"
  },
  {
    "plz": "7223",
    "name": "Sieggraben"
  },
  {
    "plz": "7301",
    "name": "Deutschkreutz"
  },
  {
    "plz": "7302",
    "name": "Nikitsch"
  },
  {
    "plz": "7304",
    "name": "Großwarasdorf"
  },
  {
    "plz": "7311",
    "name": "Neckenmarkt"
  },
  {
    "plz": "7312",
    "name": "Horitschon"
  },
  {
    "plz": "7321",
    "name": "Lackendorf"
  },
  {
    "plz": "7322",
    "name": "Lackenbach"
  },
  {
    "plz": "7323",
    "name": "Ritzing"
  },
  {
    "plz": "7331",
    "name": "Weppersdorf"
  },
  {
    "plz": "7332",
    "name": "Kobersdorf"
  },
  {
    "plz": "7341",
    "name": "Markt St. Martin"
  },
  {
    "plz": "7342",
    "name": "Kaisersdorf"
  },
  {
    "plz": "7343",
    "name": "Neutal"
  },
  {
    "plz": "7344",
    "name": "Stoob"
  },
  {
    "plz": "7350",
    "name": "Oberpullendorf"
  },
  {
    "plz": "7361",
    "name": "Lutzmannsburg"
  },
  {
    "plz": "7371",
    "name": "Unterrabnitz"
  },
  {
    "plz": "7372",
    "name": "Draßmarkt"
  },
  {
    "plz": "7373",
    "name": "Piringsdorf"
  },
  {
    "plz": "7374",
    "name": "Weingraben"
  },
  {
    "plz": "7400",
    "name": "Oberwart"
  },
  {
    "plz": "7410",
    "name": "Loipersdorf-Kitzladen"
  },
  {
    "plz": "7411",
    "name": "Markt Allhau"
  },
  {
    "plz": "7412",
    "name": "Wolfau"
  },
  {
    "plz": "7420",
    "name": "Neustift an der Lafnitz"
  },
  {
    "plz": "7421",
    "name": "Tauchen-Schaueregg"
  },
  {
    "plz": "7422",
    "name": "Riedlingsdorf"
  },
  {
    "plz": "7423",
    "name": "Pinkafeld"
  },
  {
    "plz": "7424",
    "name": "Grafenschachen"
  },
  {
    "plz": "7425",
    "name": "Wiesfleck"
  },
  {
    "plz": "7431",
    "name": "Bad Tatzmannsdorf"
  },
  {
    "plz": "7432",
    "name": "Oberschützen"
  },
  {
    "plz": "7433",
    "name": "Mariasdorf"
  },
  {
    "plz": "7434",
    "name": "Bernstein"
  },
  {
    "plz": "7435",
    "name": "Unterkohlstätten"
  },
  {
    "plz": "7441",
    "name": "Pilgersdorf"
  },
  {
    "plz": "7442",
    "name": "Lockenhaus"
  },
  {
    "plz": "7443",
    "name": "Rattersdorf-Liebing"
  },
  {
    "plz": "7444",
    "name": "Mannersdorf an der Rabnitz"
  },
  {
    "plz": "7451",
    "name": "Oberloisdorf"
  },
  {
    "plz": "7452",
    "name": "Unterpullendorf"
  },
  {
    "plz": "7453",
    "name": "Steinberg-Dörfl"
  },
  {
    "plz": "7461",
    "name": "Stadtschlaining"
  },
  {
    "plz": "7463",
    "name": "Weiden bei Rechnitz"
  },
  {
    "plz": "7464",
    "name": "Markt Neuhodis"
  },
  {
    "plz": "7471",
    "name": "Rechnitz"
  },
  {
    "plz": "7472",
    "name": "Schachendorf"
  },
  {
    "plz": "7473",
    "name": "Hannersdorf"
  },
  {
    "plz": "7474",
    "name": "Deutsch Schützen"
  },
  {
    "plz": "7501",
    "name": "Rotenturm an der Pinka"
  },
  {
    "plz": "7502",
    "name": "Unterwart"
  },
  {
    "plz": "7503",
    "name": "Großpetersdorf"
  },
  {
    "plz": "7511",
    "name": "Mischendorf"
  },
  {
    "plz": "7512",
    "name": "Kohfidisch"
  },
  {
    "plz": "7521",
    "name": "Eberau"
  },
  {
    "plz": "7522",
    "name": "Strem"
  },
  {
    "plz": "7531",
    "name": "Kemeten"
  },
  {
    "plz": "7532",
    "name": "Litzelsdorf"
  },
  {
    "plz": "7533",
    "name": "Ollersdorf im Burgenland"
  },
  {
    "plz": "7534",
    "name": "Olbendorf"
  },
  {
    "plz": "7535",
    "name": "St. Michael im Burgenland"
  },
  {
    "plz": "7536",
    "name": "Güttenbach"
  },
  {
    "plz": "7537",
    "name": "Neuberg im Burgenland"
  },
  {
    "plz": "7540",
    "name": "Güssing"
  },
  {
    "plz": "7542",
    "name": "Gerersdorf bei Güssing"
  },
  {
    "plz": "7543",
    "name": "Kukmirn"
  },
  {
    "plz": "7544",
    "name": "Tobaj"
  },
  {
    "plz": "7545",
    "name": "Neustift bei Güssing"
  },
  {
    "plz": "7546",
    "name": "Moschendorf"
  },
  {
    "plz": "7550",
    "name": "Wörterberg"
  },
  {
    "plz": "7551",
    "name": "Stegersbach"
  },
  {
    "plz": "7552",
    "name": "Stinatz"
  },
  {
    "plz": "7553",
    "name": "Bocksdorf"
  },
  {
    "plz": "7554",
    "name": "Rohr im Burgenland"
  },
  {
    "plz": "7561",
    "name": "Heiligenkreuz im Lafnitztal"
  },
  {
    "plz": "7562",
    "name": "Eltendorf"
  },
  {
    "plz": "7563",
    "name": "Königsdorf"
  },
  {
    "plz": "7564",
    "name": "Dobersdorf"
  },
  {
    "plz": "7571",
    "name": "Rudersdorf"
  },
  {
    "plz": "7572",
    "name": "Deutsch Kaltenbrunn"
  },
  {
    "plz": "7574",
    "name": "Burgauberg-Neudauberg"
  },
  {
    "plz": "8000",
    "name": "Graz"
  },
  {
    "plz": "8006",
    "name": "Graz"
  },
  {
    "plz": "8010",
    "name": "Graz"
  },
  {
    "plz": "8011",
    "name": "Graz Postfach"
  },
  {
    "plz": "8012",
    "name": "Graz"
  },
  {
    "plz": "8014",
    "name": "Hönigtal"
  },
  {
    "plz": "8015",
    "name": "Graz"
  },
  {
    "plz": "8016",
    "name": "Graz"
  },
  {
    "plz": "8017",
    "name": "Graz"
  },
  {
    "plz": "8019",
    "name": "Graz"
  },
  {
    "plz": "8020",
    "name": "Graz"
  },
  {
    "plz": "8021",
    "name": "Graz Postfach"
  },
  {
    "plz": "8025",
    "name": "Graz"
  },
  {
    "plz": "8026",
    "name": "Graz"
  },
  {
    "plz": "8035",
    "name": "Graz"
  },
  {
    "plz": "8036",
    "name": "Graz"
  },
  {
    "plz": "8041",
    "name": "Graz-Liebenau"
  },
  {
    "plz": "8042",
    "name": "Graz-St. Peter"
  },
  {
    "plz": "8043",
    "name": "Graz-Kroisbach"
  },
  {
    "plz": "8044",
    "name": "Graz-Mariatrost"
  },
  {
    "plz": "8045",
    "name": "Graz-Andritz"
  },
  {
    "plz": "8046",
    "name": "Graz-St. Veit"
  },
  {
    "plz": "8047",
    "name": "Graz-Ragnitz"
  },
  {
    "plz": "8049",
    "name": "Graz"
  },
  {
    "plz": "8050",
    "name": "Thal"
  },
  {
    "plz": "8051",
    "name": "Graz-Gösting"
  },
  {
    "plz": "8052",
    "name": "Graz-Wetzelsdorf"
  },
  {
    "plz": "8053",
    "name": "Graz-Neuhart"
  },
  {
    "plz": "8054",
    "name": "Graz-Straßgang"
  },
  {
    "plz": "8055",
    "name": "Graz-Puntigam"
  },
  {
    "plz": "8056",
    "name": "Graz"
  },
  {
    "plz": "8057",
    "name": "Graz-Straßgang"
  },
  {
    "plz": "8061",
    "name": "St. Radegund bei Graz"
  },
  {
    "plz": "8062",
    "name": "Kumberg"
  },
  {
    "plz": "8063",
    "name": "Eggersdorf bei Graz"
  },
  {
    "plz": "8071",
    "name": "Hausmannstätten"
  },
  {
    "plz": "8072",
    "name": "Fernitz"
  },
  {
    "plz": "8073",
    "name": "Feldkirchen bei Graz"
  },
  {
    "plz": "8074",
    "name": "Raaba"
  },
  {
    "plz": "8075",
    "name": "Hart bei Graz"
  },
  {
    "plz": "8076",
    "name": "Vasoldsberg"
  },
  {
    "plz": "8077",
    "name": "Gössendorf"
  },
  {
    "plz": "8081",
    "name": "Heiligenkreuz am Waasen"
  },
  {
    "plz": "8082",
    "name": "Kirchbach in Steiermark"
  },
  {
    "plz": "8083",
    "name": "St. Stefan im Rosental"
  },
  {
    "plz": "8091",
    "name": "Jagerberg"
  },
  {
    "plz": "8092",
    "name": "Mettersdorf am Saßbach"
  },
  {
    "plz": "8093",
    "name": "St. Peter am Ottersbach"
  },
  {
    "plz": "8101",
    "name": "Gratkorn"
  },
  {
    "plz": "8102",
    "name": "Semriach"
  },
  {
    "plz": "8103",
    "name": "Rein"
  },
  {
    "plz": "8111",
    "name": "Judendorf-Straßengel"
  },
  {
    "plz": "8112",
    "name": "Gratwein"
  },
  {
    "plz": "8113",
    "name": "St. Oswald bei Plankenwarth"
  },
  {
    "plz": "8114",
    "name": "Stübing"
  },
  {
    "plz": "8120",
    "name": "Peggau"
  },
  {
    "plz": "8121",
    "name": "Deutschfeistritz"
  },
  {
    "plz": "8122",
    "name": "Waldstein"
  },
  {
    "plz": "8124",
    "name": "Übelbach"
  },
  {
    "plz": "8130",
    "name": "Frohnleiten"
  },
  {
    "plz": "8131",
    "name": "Mixnitz"
  },
  {
    "plz": "8132",
    "name": "Pernegg an der Mur"
  },
  {
    "plz": "8141",
    "name": "Unterpremstätten"
  },
  {
    "plz": "8142",
    "name": "Wundschuh"
  },
  {
    "plz": "8143",
    "name": "Dobl"
  },
  {
    "plz": "8144",
    "name": "Tobelbad"
  },
  {
    "plz": "8151",
    "name": "Hitzendorf"
  },
  {
    "plz": "8152",
    "name": "Stallhofen"
  },
  {
    "plz": "8153",
    "name": "Geistthal"
  },
  {
    "plz": "8160",
    "name": "Weiz"
  },
  {
    "plz": "8162",
    "name": "Passail"
  },
  {
    "plz": "8163",
    "name": "Fladnitz an der Teichalm"
  },
  {
    "plz": "8164",
    "name": "Gutenberg"
  },
  {
    "plz": "8171",
    "name": "St. Kathrein am Offenegg"
  },
  {
    "plz": "8172",
    "name": "Heilbrunn"
  },
  {
    "plz": "8181",
    "name": "St. Ruprecht an der Raab"
  },
  {
    "plz": "8182",
    "name": "Puch bei Weiz"
  },
  {
    "plz": "8183",
    "name": "Floing"
  },
  {
    "plz": "8184",
    "name": "Anger"
  },
  {
    "plz": "8190",
    "name": "Birkfeld"
  },
  {
    "plz": "8191",
    "name": "Koglhof"
  },
  {
    "plz": "8192",
    "name": "Strallegg"
  },
  {
    "plz": "8193",
    "name": "Dorfviertel"
  },
  {
    "plz": "8194",
    "name": "Waisenegg"
  },
  {
    "plz": "8200",
    "name": "Gleisdorf"
  },
  {
    "plz": "8211",
    "name": "Ilztal"
  },
  {
    "plz": "8212",
    "name": "Pischelsdorf am Kulm"
  },
  {
    "plz": "8213",
    "name": "Gersdorf  an der Feistritz"
  },
  {
    "plz": "8221",
    "name": "Hirnsdorf"
  },
  {
    "plz": "8222",
    "name": "St. Johann bei Herberstein"
  },
  {
    "plz": "8223",
    "name": "Stubenberg am See"
  },
  {
    "plz": "8224",
    "name": "Kaindorf bei Hartberg"
  },
  {
    "plz": "8225",
    "name": "Pöllau bei Hartberg"
  },
  {
    "plz": "8226",
    "name": "Obersaifen"
  },
  {
    "plz": "8230",
    "name": "Hartberg"
  },
  {
    "plz": "8232",
    "name": "Grafendorf bei Hartberg"
  },
  {
    "plz": "8233",
    "name": "Lafnitz"
  },
  {
    "plz": "8234",
    "name": "Rohrbach an der Lafnitz"
  },
  {
    "plz": "8240",
    "name": "Friedberg"
  },
  {
    "plz": "8241",
    "name": "Dechantskirchen"
  },
  {
    "plz": "8242",
    "name": "St. Lorenzen am Wechsel"
  },
  {
    "plz": "8243",
    "name": "Pinggau"
  },
  {
    "plz": "8244",
    "name": "Schäffern"
  },
  {
    "plz": "8250",
    "name": "Vorau"
  },
  {
    "plz": "8251",
    "name": "Bruck an der Lafnitz"
  },
  {
    "plz": "8252",
    "name": "Mönichwald"
  },
  {
    "plz": "8253",
    "name": "Waldbach"
  },
  {
    "plz": "8254",
    "name": "Wenigzell"
  },
  {
    "plz": "8255",
    "name": "St. Jakob"
  },
  {
    "plz": "8261",
    "name": "Sinabelkirchen"
  },
  {
    "plz": "8262",
    "name": "Ilz"
  },
  {
    "plz": "8263",
    "name": "Großwilfersdorf"
  },
  {
    "plz": "8264",
    "name": "Hainersdorf"
  },
  {
    "plz": "8265",
    "name": "Großsteinbach"
  },
  {
    "plz": "8271",
    "name": "Bad Waltersdorf"
  },
  {
    "plz": "8272",
    "name": "Sebersdorf"
  },
  {
    "plz": "8273",
    "name": "Ebersdorf"
  },
  {
    "plz": "8274",
    "name": "Buch"
  },
  {
    "plz": "8280",
    "name": "Fürstenfeld"
  },
  {
    "plz": "8282",
    "name": "Bad Loipersdorf"
  },
  {
    "plz": "8283",
    "name": "Bad Blumau"
  },
  {
    "plz": "8291",
    "name": "Burgau"
  },
  {
    "plz": "8292",
    "name": "Neudau"
  },
  {
    "plz": "8293",
    "name": "Wörth an der Lafnitz"
  },
  {
    "plz": "8294",
    "name": "Unterrohr"
  },
  {
    "plz": "8295",
    "name": "St. Johann in der Haide"
  },
  {
    "plz": "8301",
    "name": "Laßnitzhöhe"
  },
  {
    "plz": "8302",
    "name": "Nestelbach bei Graz"
  },
  {
    "plz": "8311",
    "name": "Markt Hartmannsdorf"
  },
  {
    "plz": "8312",
    "name": "Ottendorf an der Rittschein"
  },
  {
    "plz": "8313",
    "name": "Breitenfeld an der Rittschein"
  },
  {
    "plz": "8321",
    "name": "St. Margarethen an der Raab"
  },
  {
    "plz": "8322",
    "name": "Studenzen"
  },
  {
    "plz": "8323",
    "name": "St. Marein bei Graz"
  },
  {
    "plz": "8324",
    "name": "Kirchberg an der Raab"
  },
  {
    "plz": "8330",
    "name": "Feldbach"
  },
  {
    "plz": "8332",
    "name": "Edelsbach bei Feldbach"
  },
  {
    "plz": "8333",
    "name": "Riegersburg"
  },
  {
    "plz": "8334",
    "name": "Lödersdorf"
  },
  {
    "plz": "8341",
    "name": "Paldau"
  },
  {
    "plz": "8342",
    "name": "Gnas"
  },
  {
    "plz": "8343",
    "name": "Trautmannsdorf in Oststeiermark"
  },
  {
    "plz": "8344",
    "name": "Bad Gleichenberg"
  },
  {
    "plz": "8345",
    "name": "Straden"
  },
  {
    "plz": "8350",
    "name": "Fehring"
  },
  {
    "plz": "8352",
    "name": "Unterlamm"
  },
  {
    "plz": "8353",
    "name": "Kapfenstein"
  },
  {
    "plz": "8354",
    "name": "St. Anna am Aigen"
  },
  {
    "plz": "8355",
    "name": "Tieschen"
  },
  {
    "plz": "8361",
    "name": "Hatzendorf"
  },
  {
    "plz": "8362",
    "name": "Söchau"
  },
  {
    "plz": "8380",
    "name": "Jennersdorf"
  },
  {
    "plz": "8382",
    "name": "Mogersdorf"
  },
  {
    "plz": "8383",
    "name": "St. Martin an der Raab"
  },
  {
    "plz": "8384",
    "name": "Minihof-Liebau"
  },
  {
    "plz": "8385",
    "name": "Neuhaus am Klausenbach"
  },
  {
    "plz": "8401",
    "name": "Kalsdorf bei Graz"
  },
  {
    "plz": "8402",
    "name": "Werndorf"
  },
  {
    "plz": "8403",
    "name": "Lebring"
  },
  {
    "plz": "8404",
    "name": "Kalsdorf bei Graz"
  },
  {
    "plz": "8410",
    "name": "Wildon"
  },
  {
    "plz": "8411",
    "name": "Hengsberg"
  },
  {
    "plz": "8412",
    "name": "Allerheiligen bei Wildon"
  },
  {
    "plz": "8413",
    "name": "St. Georgen an der Stiefing"
  },
  {
    "plz": "8421",
    "name": "Wolfsberg im Schwarzautal"
  },
  {
    "plz": "8422",
    "name": "St. Nikolai ob Draßling"
  },
  {
    "plz": "8423",
    "name": "St. Veit am Vogau"
  },
  {
    "plz": "8424",
    "name": "Gabersdorf"
  },
  {
    "plz": "8430",
    "name": "Leibnitz"
  },
  {
    "plz": "8431",
    "name": "Gralla"
  },
  {
    "plz": "8432",
    "name": "Kaindorf an der Sulm"
  },
  {
    "plz": "8434",
    "name": "Tillmitsch"
  },
  {
    "plz": "8435",
    "name": "Wagna"
  },
  {
    "plz": "8441",
    "name": "Fresing"
  },
  {
    "plz": "8442",
    "name": "Kitzeck im Sausal"
  },
  {
    "plz": "8443",
    "name": "Gleinstätten"
  },
  {
    "plz": "8444",
    "name": "St. Andrä im Sausal"
  },
  {
    "plz": "8451",
    "name": "Heimschuh"
  },
  {
    "plz": "8452",
    "name": "Großklein"
  },
  {
    "plz": "8453",
    "name": "St. Johann im Saggautal"
  },
  {
    "plz": "8454",
    "name": "Arnfels"
  },
  {
    "plz": "8455",
    "name": "Oberhaag"
  },
  {
    "plz": "8461",
    "name": "Ehrenhausen"
  },
  {
    "plz": "8462",
    "name": "Gamlitz"
  },
  {
    "plz": "8463",
    "name": "Leutschach"
  },
  {
    "plz": "8471",
    "name": "Spielfeld"
  },
  {
    "plz": "8472",
    "name": "Straß in Steiermark"
  },
  {
    "plz": "8473",
    "name": "Weitersfeld an der Mur"
  },
  {
    "plz": "8480",
    "name": "Mureck"
  },
  {
    "plz": "8481",
    "name": "Weinburg am Saßbach"
  },
  {
    "plz": "8482",
    "name": "Gosdorf"
  },
  {
    "plz": "8483",
    "name": "Deutsch Goritz"
  },
  {
    "plz": "8484",
    "name": "Unterpurkla"
  },
  {
    "plz": "8490",
    "name": "Bad Radkersburg"
  },
  {
    "plz": "8492",
    "name": "Halbenrain"
  },
  {
    "plz": "8493",
    "name": "Klöch"
  },
  {
    "plz": "8501",
    "name": "Lieboch"
  },
  {
    "plz": "8502",
    "name": "Lannach"
  },
  {
    "plz": "8503",
    "name": "St. Josef Weststeiermark"
  },
  {
    "plz": "8504",
    "name": "Preding"
  },
  {
    "plz": "8505",
    "name": "St. Nikolai im Sausal"
  },
  {
    "plz": "8510",
    "name": "Stainz"
  },
  {
    "plz": "8511",
    "name": "St. Stefan ob Stainz"
  },
  {
    "plz": "8521",
    "name": "Wettmannstätten"
  },
  {
    "plz": "8522",
    "name": "Groß St. Florian"
  },
  {
    "plz": "8523",
    "name": "Frauental an der Laßnitz"
  },
  {
    "plz": "8524",
    "name": "Bad Gams"
  },
  {
    "plz": "8530",
    "name": "Deutschlandsberg"
  },
  {
    "plz": "8541",
    "name": "Schwanberg"
  },
  {
    "plz": "8542",
    "name": "St. Peter im Sulmtal"
  },
  {
    "plz": "8543",
    "name": "St. Martin im Sulmtal"
  },
  {
    "plz": "8544",
    "name": "Pölfing-Brunn"
  },
  {
    "plz": "8551",
    "name": "Wies"
  },
  {
    "plz": "8552",
    "name": "Eibiswald"
  },
  {
    "plz": "8553",
    "name": "St. Oswald ob Eibiswald"
  },
  {
    "plz": "8554",
    "name": "Soboth"
  },
  {
    "plz": "8555",
    "name": "Wernersdorf"
  },
  {
    "plz": "8561",
    "name": "Söding"
  },
  {
    "plz": "8562",
    "name": "Mooskirchen"
  },
  {
    "plz": "8563",
    "name": "Ligist"
  },
  {
    "plz": "8564",
    "name": "Krottendorf-Gaisfeld"
  },
  {
    "plz": "8565",
    "name": "St. Johann ob Hohenburg"
  },
  {
    "plz": "8570",
    "name": "Voitsberg"
  },
  {
    "plz": "8571",
    "name": "Bärnbach"
  },
  {
    "plz": "8572",
    "name": "Bärnbach"
  },
  {
    "plz": "8573",
    "name": "Kainach bei Voitsberg"
  },
  {
    "plz": "8580",
    "name": "Köflach"
  },
  {
    "plz": "8581",
    "name": "Köflach"
  },
  {
    "plz": "8582",
    "name": "Rosental an der Kainach"
  },
  {
    "plz": "8583",
    "name": "Edelschrott"
  },
  {
    "plz": "8584",
    "name": "Hirschegg"
  },
  {
    "plz": "8591",
    "name": "Maria Lankowitz"
  },
  {
    "plz": "8592",
    "name": "Salla"
  },
  {
    "plz": "8593",
    "name": "Graden"
  },
  {
    "plz": "8600",
    "name": "Bruck an der Mur"
  },
  {
    "plz": "8605",
    "name": "Kapfenberg"
  },
  {
    "plz": "8607",
    "name": "Kapfenberg"
  },
  {
    "plz": "8611",
    "name": "St. Katharein an der Laming"
  },
  {
    "plz": "8612",
    "name": "Tragöß-Oberort"
  },
  {
    "plz": "8614",
    "name": "Breitenau"
  },
  {
    "plz": "8616",
    "name": "Gasen"
  },
  {
    "plz": "8621",
    "name": "Thörl"
  },
  {
    "plz": "8622",
    "name": "Etmißl"
  },
  {
    "plz": "8623",
    "name": "Aflenz Kurort"
  },
  {
    "plz": "8624",
    "name": "Au"
  },
  {
    "plz": "8625",
    "name": "Turnau"
  },
  {
    "plz": "8630",
    "name": "Mariazell"
  },
  {
    "plz": "8632",
    "name": "Gußwerk"
  },
  {
    "plz": "8634",
    "name": "Wegscheid"
  },
  {
    "plz": "8635",
    "name": "Gollrad"
  },
  {
    "plz": "8636",
    "name": "Seewiesen"
  },
  {
    "plz": "8641",
    "name": "St. Marein im Mürztal"
  },
  {
    "plz": "8642",
    "name": "St. Lorenzen im Mürztal"
  },
  {
    "plz": "8643",
    "name": "Allerheiligen im Mürztal"
  },
  {
    "plz": "8644",
    "name": "Mürzhofen"
  },
  {
    "plz": "8650",
    "name": "Kindberg"
  },
  {
    "plz": "8652",
    "name": "Kindberg-Aumühl"
  },
  {
    "plz": "8653",
    "name": "Stanz im Mürztal"
  },
  {
    "plz": "8654",
    "name": "Fischbach"
  },
  {
    "plz": "8661",
    "name": "Wartberg im Mürztal"
  },
  {
    "plz": "8662",
    "name": "Mitterdorf im Mürztal"
  },
  {
    "plz": "8663",
    "name": "Dorf Veitsch"
  },
  {
    "plz": "8664",
    "name": "Großveitsch"
  },
  {
    "plz": "8665",
    "name": "Langenwang"
  },
  {
    "plz": "8670",
    "name": "Krieglach"
  },
  {
    "plz": "8671",
    "name": "Alpl"
  },
  {
    "plz": "8672",
    "name": "St. Kathrein am Hauenstein"
  },
  {
    "plz": "8673",
    "name": "Ratten"
  },
  {
    "plz": "8674",
    "name": "Rettenegg"
  },
  {
    "plz": "8680",
    "name": "Mürzzuschlag"
  },
  {
    "plz": "8682",
    "name": "Mürzzuschlag-Hönigsberg"
  },
  {
    "plz": "8683",
    "name": "Mürzzuschlag"
  },
  {
    "plz": "8684",
    "name": "Spital am Semmering"
  },
  {
    "plz": "8685",
    "name": "Steinhaus am Semmering"
  },
  {
    "plz": "8691",
    "name": "Kapellen"
  },
  {
    "plz": "8692",
    "name": "Neuberg an der Mürz"
  },
  {
    "plz": "8693",
    "name": "Mürzsteg"
  },
  {
    "plz": "8694",
    "name": "Frein an der Mürz"
  },
  {
    "plz": "8700",
    "name": "Leoben"
  },
  {
    "plz": "8704",
    "name": "Leoben"
  },
  {
    "plz": "8707",
    "name": "Leoben"
  },
  {
    "plz": "8709",
    "name": "Leoben-Lerchenfeld"
  },
  {
    "plz": "8712",
    "name": "Niklasdorf"
  },
  {
    "plz": "8713",
    "name": "St. Stefan ob Leoben"
  },
  {
    "plz": "8714",
    "name": "Kraubath an der Mur"
  },
  {
    "plz": "8715",
    "name": "St. Lorenzen bei Knittelfeld"
  },
  {
    "plz": "8720",
    "name": "Knittelfeld"
  },
  {
    "plz": "8723",
    "name": "Kobenz"
  },
  {
    "plz": "8724",
    "name": "Spielberg"
  },
  {
    "plz": "8731",
    "name": "Bischoffeld"
  },
  {
    "plz": "8732",
    "name": "Seckau"
  },
  {
    "plz": "8733",
    "name": "St. Marein bei Knittelfeld"
  },
  {
    "plz": "8734",
    "name": "Großlobming"
  },
  {
    "plz": "8740",
    "name": "Zeltweg"
  },
  {
    "plz": "8741",
    "name": "Weißkirchen in Steiermark"
  },
  {
    "plz": "8742",
    "name": "Obdach"
  },
  {
    "plz": "8743",
    "name": "Eppenstein"
  },
  {
    "plz": "8750",
    "name": "Judenburg"
  },
  {
    "plz": "8751",
    "name": "Judenburg - Murdorf"
  },
  {
    "plz": "8753",
    "name": "Fohnsdorf"
  },
  {
    "plz": "8754",
    "name": "Thalheim"
  },
  {
    "plz": "8755",
    "name": "St. Peter ob Judenburg"
  },
  {
    "plz": "8756",
    "name": "St. Georgen ob Judenburg"
  },
  {
    "plz": "8761",
    "name": "Pöls"
  },
  {
    "plz": "8762",
    "name": "Oberzeiring"
  },
  {
    "plz": "8763",
    "name": "Möderbrugg"
  },
  {
    "plz": "8764",
    "name": "Pusterwald"
  },
  {
    "plz": "8765",
    "name": "St. Johann am Tauern"
  },
  {
    "plz": "8770",
    "name": "St. Michael in Obersteiermark"
  },
  {
    "plz": "8772",
    "name": "Timmersdorf"
  },
  {
    "plz": "8773",
    "name": "Kammern im Liesingtal"
  },
  {
    "plz": "8774",
    "name": "Mautern in Steiermark"
  },
  {
    "plz": "8775",
    "name": "Kalwang"
  },
  {
    "plz": "8781",
    "name": "Wald am Schoberpaß"
  },
  {
    "plz": "8782",
    "name": "Treglwang"
  },
  {
    "plz": "8783",
    "name": "Gaishorn am See"
  },
  {
    "plz": "8784",
    "name": "Trieben"
  },
  {
    "plz": "8785",
    "name": "Hohentauern"
  },
  {
    "plz": "8786",
    "name": "Rottenmann"
  },
  {
    "plz": "8790",
    "name": "Eisenerz"
  },
  {
    "plz": "8792",
    "name": "St. Peter-Freienstein"
  },
  {
    "plz": "8793",
    "name": "Trofaiach"
  },
  {
    "plz": "8794",
    "name": "Vordernberg"
  },
  {
    "plz": "8795",
    "name": "Radmer"
  },
  {
    "plz": "8800",
    "name": "Unzmarkt"
  },
  {
    "plz": "8811",
    "name": "Scheifling"
  },
  {
    "plz": "8812",
    "name": "Mariahof"
  },
  {
    "plz": "8813",
    "name": "St. Lambrecht"
  },
  {
    "plz": "8820",
    "name": "Neumarkt in Steiermark"
  },
  {
    "plz": "8822",
    "name": "Mühlen"
  },
  {
    "plz": "8831",
    "name": "Niederwölz"
  },
  {
    "plz": "8832",
    "name": "Oberwölz"
  },
  {
    "plz": "8833",
    "name": "Teufenbach"
  },
  {
    "plz": "8841",
    "name": "Frojach"
  },
  {
    "plz": "8842",
    "name": "Katsch an der Mur"
  },
  {
    "plz": "8843",
    "name": "St. Peter am Kammersberg"
  },
  {
    "plz": "8844",
    "name": "Schöder"
  },
  {
    "plz": "8850",
    "name": "Murau"
  },
  {
    "plz": "8852",
    "name": "Stolzalpe"
  },
  {
    "plz": "8853",
    "name": "Ranten"
  },
  {
    "plz": "8854",
    "name": "Krakaudorf"
  },
  {
    "plz": "8861",
    "name": "St. Georgen ob Murau"
  },
  {
    "plz": "8862",
    "name": "Stadl an der Mur"
  },
  {
    "plz": "8863",
    "name": "Predlitz"
  },
  {
    "plz": "8864",
    "name": "Turrach"
  },
  {
    "plz": "8900",
    "name": "Selzthal"
  },
  {
    "plz": "8903",
    "name": "Lassing"
  },
  {
    "plz": "8904",
    "name": "Ardning"
  },
  {
    "plz": "8911",
    "name": "Admont"
  },
  {
    "plz": "8912",
    "name": "Johnsbach"
  },
  {
    "plz": "8913",
    "name": "Weng"
  },
  {
    "plz": "8920",
    "name": "Hieflau"
  },
  {
    "plz": "8921",
    "name": "Lainbach"
  },
  {
    "plz": "8922",
    "name": "Gams bei Hieflau"
  },
  {
    "plz": "8923",
    "name": "Palfau"
  },
  {
    "plz": "8924",
    "name": "Wildalpen"
  },
  {
    "plz": "8931",
    "name": "Landl"
  },
  {
    "plz": "8932",
    "name": "Weißenbach an der Enns"
  },
  {
    "plz": "8933",
    "name": "St. Gallen"
  },
  {
    "plz": "8934",
    "name": "Altenmarkt bei St. Gallen"
  },
  {
    "plz": "8940",
    "name": "Liezen"
  },
  {
    "plz": "8942",
    "name": "Wörschach"
  },
  {
    "plz": "8943",
    "name": "Aigen im Ennstal"
  },
  {
    "plz": "8950",
    "name": "Stainach"
  },
  {
    "plz": "8951",
    "name": "Trautenfels"
  },
  {
    "plz": "8952",
    "name": "Irdning"
  },
  {
    "plz": "8953",
    "name": "Donnersbach"
  },
  {
    "plz": "8954",
    "name": "St. Martin am Grimming"
  },
  {
    "plz": "8960",
    "name": "Öblarn"
  },
  {
    "plz": "8961",
    "name": "Stein an der Enns"
  },
  {
    "plz": "8962",
    "name": "Gröbming"
  },
  {
    "plz": "8965",
    "name": "Pruggern"
  },
  {
    "plz": "8966",
    "name": "Aich-Assach"
  },
  {
    "plz": "8967",
    "name": "Haus"
  },
  {
    "plz": "8970",
    "name": "Schladming"
  },
  {
    "plz": "8971",
    "name": "Rohrmoos-Untertal"
  },
  {
    "plz": "8972",
    "name": "Ramsau"
  },
  {
    "plz": "8973",
    "name": "Pichl"
  },
  {
    "plz": "8974",
    "name": "Mandling"
  },
  {
    "plz": "8982",
    "name": "Tauplitz"
  },
  {
    "plz": "8983",
    "name": "Bad Mitterndorf"
  },
  {
    "plz": "8984",
    "name": "Kainisch"
  },
  {
    "plz": "8990",
    "name": "Bad Aussee"
  },
  {
    "plz": "8992",
    "name": "Altaussee"
  },
  {
    "plz": "8993",
    "name": "Grundlsee"
  },
  {
    "plz": "9000",
    "name": "Villach"
  },
  {
    "plz": "9010",
    "name": "Klagenfurt am Wörthersee"
  },
  {
    "plz": "9020",
    "name": "Klagenfurt am Wörthersee"
  },
  {
    "plz": "9021",
    "name": "Klagenfurt am Wörthersee Postfach"
  },
  {
    "plz": "9022",
    "name": "Klagenfurt am Wörthersee"
  },
  {
    "plz": "9025",
    "name": "Klagenfurt am Wörthersee"
  },
  {
    "plz": "9026",
    "name": "Klagenfurt am Wörthersee"
  },
  {
    "plz": "9027",
    "name": "Klagenfurt am Wörthersee"
  },
  {
    "plz": "9028",
    "name": "Klagenfurt am Wörthersee"
  },
  {
    "plz": "9033",
    "name": "Klagenfurt"
  },
  {
    "plz": "9034",
    "name": "Klagenfurt"
  },
  {
    "plz": "9061",
    "name": "Klagenfurt-Wölfnitz"
  },
  {
    "plz": "9062",
    "name": "Moosburg"
  },
  {
    "plz": "9063",
    "name": "Maria Saal"
  },
  {
    "plz": "9064",
    "name": "Pischeldorf"
  },
  {
    "plz": "9065",
    "name": "Ebenthal"
  },
  {
    "plz": "9071",
    "name": "Köttmannsdorf"
  },
  {
    "plz": "9072",
    "name": "Ludmannsdorf"
  },
  {
    "plz": "9073",
    "name": "Klagenfurt-Viktring"
  },
  {
    "plz": "9074",
    "name": "Keutschach"
  },
  {
    "plz": "9081",
    "name": "Reifnitz"
  },
  {
    "plz": "9082",
    "name": "Maria Wörth"
  },
  {
    "plz": "9100",
    "name": "Völkermarkt"
  },
  {
    "plz": "9102",
    "name": "Mittertrixen"
  },
  {
    "plz": "9103",
    "name": "Diex"
  },
  {
    "plz": "9104",
    "name": "Pustritz"
  },
  {
    "plz": "9111",
    "name": "Haimburg"
  },
  {
    "plz": "9112",
    "name": "Griffen"
  },
  {
    "plz": "9113",
    "name": "Ruden"
  },
  {
    "plz": "9121",
    "name": "Tainach"
  },
  {
    "plz": "9122",
    "name": "St. Kanzian am Klopeiner See"
  },
  {
    "plz": "9123",
    "name": "St. Primus"
  },
  {
    "plz": "9125",
    "name": "Kühnsdorf"
  },
  {
    "plz": "9130",
    "name": "Poggersdorf"
  },
  {
    "plz": "9131",
    "name": "Grafenstein"
  },
  {
    "plz": "9132",
    "name": "Gallizien"
  },
  {
    "plz": "9133",
    "name": "Sittersdorf"
  },
  {
    "plz": "9135",
    "name": "Bad Eisenkappel"
  },
  {
    "plz": "9141",
    "name": "Eberndorf"
  },
  {
    "plz": "9142",
    "name": "Globasnitz"
  },
  {
    "plz": "9143",
    "name": "St. Michael ob Bleiburg"
  },
  {
    "plz": "9150",
    "name": "Bleiburg"
  },
  {
    "plz": "9155",
    "name": "Neuhaus"
  },
  {
    "plz": "9161",
    "name": "Maria Rain"
  },
  {
    "plz": "9162",
    "name": "Strau"
  },
  {
    "plz": "9163",
    "name": "Unterbergen"
  },
  {
    "plz": "9170",
    "name": "Ferlach"
  },
  {
    "plz": "9171",
    "name": "Ferlach"
  },
  {
    "plz": "9172",
    "name": "Zell-Pfarre"
  },
  {
    "plz": "9173",
    "name": "St. Margareten im Rosental"
  },
  {
    "plz": "9181",
    "name": "Feistritz im Rosental"
  },
  {
    "plz": "9182",
    "name": "Maria Elend"
  },
  {
    "plz": "9183",
    "name": "Rosenbach"
  },
  {
    "plz": "9184",
    "name": "St. Jakob im Rosental"
  },
  {
    "plz": "9201",
    "name": "Krumpendorf"
  },
  {
    "plz": "9210",
    "name": "Pörtschach am Wörther See"
  },
  {
    "plz": "9212",
    "name": "Techelsberg am Wörther See"
  },
  {
    "plz": "9220",
    "name": "Velden am Wörther See"
  },
  {
    "plz": "9231",
    "name": "Köstenberg"
  },
  {
    "plz": "9232",
    "name": "Rosegg"
  },
  {
    "plz": "9241",
    "name": "Wernberg"
  },
  {
    "plz": "9300",
    "name": "St. Veit an der Glan"
  },
  {
    "plz": "9311",
    "name": "Kraig"
  },
  {
    "plz": "9312",
    "name": "Meiselding"
  },
  {
    "plz": "9313",
    "name": "St. Georgen am Längsee"
  },
  {
    "plz": "9314",
    "name": "Launsdorf"
  },
  {
    "plz": "9321",
    "name": "Kappel am Krappfeld"
  },
  {
    "plz": "9322",
    "name": "Micheldorf"
  },
  {
    "plz": "9323",
    "name": "Wildbad Einöd"
  },
  {
    "plz": "9330",
    "name": "Treibach-Althofen"
  },
  {
    "plz": "9334",
    "name": "Guttaring"
  },
  {
    "plz": "9335",
    "name": "Lölling"
  },
  {
    "plz": "9341",
    "name": "Straßburg"
  },
  {
    "plz": "9342",
    "name": "Gurk"
  },
  {
    "plz": "9343",
    "name": "Zweinitz"
  },
  {
    "plz": "9344",
    "name": "Weitensfeld"
  },
  {
    "plz": "9345",
    "name": "Kleinglödnitz"
  },
  {
    "plz": "9346",
    "name": "Glödnitz"
  },
  {
    "plz": "9360",
    "name": "Friesach"
  },
  {
    "plz": "9361",
    "name": "St. Salvator"
  },
  {
    "plz": "9362",
    "name": "Grades"
  },
  {
    "plz": "9363",
    "name": "Metnitz"
  },
  {
    "plz": "9371",
    "name": "Brückl"
  },
  {
    "plz": "9372",
    "name": "Eberstein"
  },
  {
    "plz": "9373",
    "name": "Klein St. Paul"
  },
  {
    "plz": "9374",
    "name": "Wieting"
  },
  {
    "plz": "9375",
    "name": "Hüttenberg"
  },
  {
    "plz": "9376",
    "name": "Knappenberg"
  },
  {
    "plz": "9400",
    "name": "Wolfsberg"
  },
  {
    "plz": "9402",
    "name": "Wolfsberg"
  },
  {
    "plz": "9411",
    "name": "St. Michael"
  },
  {
    "plz": "9412",
    "name": "St. Margarethen im Lavanttal"
  },
  {
    "plz": "9413",
    "name": "St. Gertraud"
  },
  {
    "plz": "9421",
    "name": "Eitweg"
  },
  {
    "plz": "9422",
    "name": "Maria Rojach"
  },
  {
    "plz": "9423",
    "name": "St. Georgen"
  },
  {
    "plz": "9431",
    "name": "St. Stefan"
  },
  {
    "plz": "9433",
    "name": "St. Andrä"
  },
  {
    "plz": "9441",
    "name": "Twimberg"
  },
  {
    "plz": "9451",
    "name": "Preitenegg"
  },
  {
    "plz": "9461",
    "name": "Prebl"
  },
  {
    "plz": "9462",
    "name": "Bad St. Leonhard im Lavanttal"
  },
  {
    "plz": "9463",
    "name": "Reichenfels"
  },
  {
    "plz": "9470",
    "name": "St. Paul im Lavanttal"
  },
  {
    "plz": "9472",
    "name": "Ettendorf"
  },
  {
    "plz": "9473",
    "name": "Lavamünd"
  },
  {
    "plz": "9500",
    "name": "Villach"
  },
  {
    "plz": "9501",
    "name": "Villach"
  },
  {
    "plz": "9503",
    "name": "Villach"
  },
  {
    "plz": "9504",
    "name": "Villach-Warmbad Villach"
  },
  {
    "plz": "9507",
    "name": "Villach"
  },
  {
    "plz": "9509",
    "name": "Zauchen"
  },
  {
    "plz": "9520",
    "name": "Sattendorf"
  },
  {
    "plz": "9521",
    "name": "Treffen"
  },
  {
    "plz": "9523",
    "name": "Villach-Landskron"
  },
  {
    "plz": "9524",
    "name": "Villach-St. Magdalen"
  },
  {
    "plz": "9530",
    "name": "Bad Bleiberg"
  },
  {
    "plz": "9531",
    "name": "Kreuth"
  },
  {
    "plz": "9535",
    "name": "Schiefling am Wörthersee"
  },
  {
    "plz": "9536",
    "name": "St. Egyden"
  },
  {
    "plz": "9541",
    "name": "Einöde"
  },
  {
    "plz": "9542",
    "name": "Afritz"
  },
  {
    "plz": "9543",
    "name": "Arriach"
  },
  {
    "plz": "9544",
    "name": "Feld am See"
  },
  {
    "plz": "9545",
    "name": "Radenthein"
  },
  {
    "plz": "9546",
    "name": "Bad Kleinkirchheim"
  },
  {
    "plz": "9551",
    "name": "Bodensdorf"
  },
  {
    "plz": "9552",
    "name": "Steindorf am Ossiacher See"
  },
  {
    "plz": "9554",
    "name": "St. Urban"
  },
  {
    "plz": "9555",
    "name": "Glanegg"
  },
  {
    "plz": "9556",
    "name": "Liebenfels"
  },
  {
    "plz": "9560",
    "name": "Feldkirchen in Kärnten"
  },
  {
    "plz": "9562",
    "name": "Himmelberg"
  },
  {
    "plz": "9563",
    "name": "Gnesau"
  },
  {
    "plz": "9564",
    "name": "Patergassen"
  },
  {
    "plz": "9565",
    "name": "Ebene Reichenau"
  },
  {
    "plz": "9566",
    "name": "Feldkirchen"
  },
  {
    "plz": "9570",
    "name": "Ossiach"
  },
  {
    "plz": "9571",
    "name": "Sirnitz"
  },
  {
    "plz": "9572",
    "name": "Deutsch Griffen"
  },
  {
    "plz": "9580",
    "name": "Villach-Drobollach am Faaker See"
  },
  {
    "plz": "9581",
    "name": "Ledenitzen"
  },
  {
    "plz": "9582",
    "name": "Latschach"
  },
  {
    "plz": "9583",
    "name": "Faak am See"
  },
  {
    "plz": "9584",
    "name": "Finkenstein"
  },
  {
    "plz": "9585",
    "name": "Gödersdorf"
  },
  {
    "plz": "9586",
    "name": "Fürnitz"
  },
  {
    "plz": "9587",
    "name": "Riegersdorf"
  },
  {
    "plz": "9601",
    "name": "Arnoldstein"
  },
  {
    "plz": "9602",
    "name": "Thörl-Maglern"
  },
  {
    "plz": "9611",
    "name": "Nötsch"
  },
  {
    "plz": "9612",
    "name": "St. Georgen im Gailtal"
  },
  {
    "plz": "9613",
    "name": "Feistritz an der Gail"
  },
  {
    "plz": "9614",
    "name": "Vorderberg"
  },
  {
    "plz": "9615",
    "name": "Görtschach"
  },
  {
    "plz": "9620",
    "name": "Hermagor"
  },
  {
    "plz": "9622",
    "name": "Weißbriach"
  },
  {
    "plz": "9623",
    "name": "St. Stefan an der Gail"
  },
  {
    "plz": "9624",
    "name": "Egg"
  },
  {
    "plz": "9631",
    "name": "Jenig"
  },
  {
    "plz": "9632",
    "name": "Kirchbach"
  },
  {
    "plz": "9633",
    "name": "Reisach"
  },
  {
    "plz": "9634",
    "name": "Gundersheim"
  },
  {
    "plz": "9635",
    "name": "Dellach"
  },
  {
    "plz": "9640",
    "name": "Kötschach-Mauthen"
  },
  {
    "plz": "9651",
    "name": "St. Jakob im Lesachtal"
  },
  {
    "plz": "9652",
    "name": "Birnbaum"
  },
  {
    "plz": "9653",
    "name": "Liesing"
  },
  {
    "plz": "9654",
    "name": "St. Lorenzen im Lesachtal"
  },
  {
    "plz": "9655",
    "name": "Maria Luggau"
  },
  {
    "plz": "9701",
    "name": "Rothenthurn"
  },
  {
    "plz": "9702",
    "name": "Ferndorf"
  },
  {
    "plz": "9710",
    "name": "Feistritz an der Drau"
  },
  {
    "plz": "9711",
    "name": "Paternion"
  },
  {
    "plz": "9712",
    "name": "Fresach"
  },
  {
    "plz": "9713",
    "name": "Zlan"
  },
  {
    "plz": "9714",
    "name": "Stockenboi"
  },
  {
    "plz": "9721",
    "name": "Weißenstein"
  },
  {
    "plz": "9722",
    "name": "Gummern"
  },
  {
    "plz": "9751",
    "name": "Sachsenburg"
  },
  {
    "plz": "9753",
    "name": "Lind im Drautal"
  },
  {
    "plz": "9754",
    "name": "Steinfeld"
  },
  {
    "plz": "9761",
    "name": "Greifenburg"
  },
  {
    "plz": "9762",
    "name": "Weißensee"
  },
  {
    "plz": "9771",
    "name": "Berg im Drautal"
  },
  {
    "plz": "9772",
    "name": "Dellach"
  },
  {
    "plz": "9773",
    "name": "Irschen"
  },
  {
    "plz": "9781",
    "name": "Oberdrauburg"
  },
  {
    "plz": "9782",
    "name": "Nikolsdorf"
  },
  {
    "plz": "9800",
    "name": "Spittal an der Drau"
  },
  {
    "plz": "9802",
    "name": "Spittal an der Drau"
  },
  {
    "plz": "9803",
    "name": "Spittal an der Drau"
  },
  {
    "plz": "9805",
    "name": "Baldramsdorf"
  },
  {
    "plz": "9811",
    "name": "Lendorf"
  },
  {
    "plz": "9812",
    "name": "Pusarnitz"
  },
  {
    "plz": "9813",
    "name": "Möllbrücke"
  },
  {
    "plz": "9814",
    "name": "Mühldorf"
  },
  {
    "plz": "9815",
    "name": "Kolbnitz"
  },
  {
    "plz": "9816",
    "name": "Penk"
  },
  {
    "plz": "9821",
    "name": "Obervellach"
  },
  {
    "plz": "9822",
    "name": "Mallnitz"
  },
  {
    "plz": "9831",
    "name": "Flattach"
  },
  {
    "plz": "9832",
    "name": "Stall"
  },
  {
    "plz": "9833",
    "name": "Rangersdorf"
  },
  {
    "plz": "9841",
    "name": "Winklern"
  },
  {
    "plz": "9842",
    "name": "Mörtschach"
  },
  {
    "plz": "9843",
    "name": "Großkirchheim"
  },
  {
    "plz": "9844",
    "name": "Heiligenblut"
  },
  {
    "plz": "9851",
    "name": "Lieserbrücke"
  },
  {
    "plz": "9852",
    "name": "Trebesing"
  },
  {
    "plz": "9853",
    "name": "Gmünd"
  },
  {
    "plz": "9854",
    "name": "Malta"
  },
  {
    "plz": "9861",
    "name": "Eisentratten"
  },
  {
    "plz": "9862",
    "name": "Kremsbrücke"
  },
  {
    "plz": "9863",
    "name": "Rennweg"
  },
  {
    "plz": "9871",
    "name": "Seeboden"
  },
  {
    "plz": "9872",
    "name": "Millstatt am See"
  },
  {
    "plz": "9873",
    "name": "Döbriach"
  },
  {
    "plz": "9900",
    "name": "Lienz"
  },
  {
    "plz": "9903",
    "name": "Oberlienz"
  },
  {
    "plz": "9904",
    "name": "Thurn"
  },
  {
    "plz": "9905",
    "name": "Gaimberg"
  },
  {
    "plz": "9906",
    "name": "Lavant"
  },
  {
    "plz": "9907",
    "name": "Tristach"
  },
  {
    "plz": "9908",
    "name": "Amlach"
  },
  {
    "plz": "9909",
    "name": "Leisach"
  },
  {
    "plz": "9911",
    "name": "Assling"
  },
  {
    "plz": "9912",
    "name": "Anras"
  },
  {
    "plz": "9913",
    "name": "Abfaltersbach"
  },
  {
    "plz": "9918",
    "name": "Strassen"
  },
  {
    "plz": "9919",
    "name": "Heinfels"
  },
  {
    "plz": "9920",
    "name": "Sillian"
  },
  {
    "plz": "9931",
    "name": "Außervillgraten"
  },
  {
    "plz": "9932",
    "name": "Innervillgraten"
  },
  {
    "plz": "9941",
    "name": "Kartitsch"
  },
  {
    "plz": "9942",
    "name": "Obertilliach"
  },
  {
    "plz": "9943",
    "name": "Untertilliach"
  },
  {
    "plz": "9951",
    "name": "Ainet"
  },
  {
    "plz": "9952",
    "name": "St. Johann im Walde"
  },
  {
    "plz": "9953",
    "name": "Huben"
  },
  {
    "plz": "9954",
    "name": "Schlaiten"
  },
  {
    "plz": "9961",
    "name": "Hopfgarten in Defereggen"
  },
  {
    "plz": "9962",
    "name": "St. Veit in Defereggen"
  },
  {
    "plz": "9963",
    "name": "St. Jakob in Defereggen"
  },
  {
    "plz": "9971",
    "name": "Matrei in Osttirol"
  },
  {
    "plz": "9972",
    "name": "Virgen"
  },
  {
    "plz": "9974",
    "name": "Prägraten"
  },
  {
    "plz": "9981",
    "name": "Kals"
  },
  {
    "plz": "9990",
    "name": "Nußdorf-Debant"
  },
  {
    "plz": "9991",
    "name": "Dölsach"
  },
  {
    "plz": "9992",
    "name": "Iselsberg-Stronach"
  }
]